,Operator Name,Location Name,COMAH tier,Local Authority,Country,postcode,latitude,longitude,x,y
0,Anglian Water Services Limited,Wing Water Treatment Works,upper,Rutland UA,England,LE158SA,52.616952,-0.679148,351.14222707420504,198.5198664077093
1,Arch Timber Protection Limited,Huddersfield,upper,Kirklees,England,HD21YU,53.6629587342702,-1.755167,281.3668733165282,293.0784749262966
2,Argenta Dundee Limited,Dundee,upper,Dundee UA,Scotland,DD23XR,56.48105704229889,-3.00950120705657,212.28291589388158,553.0472578531007
3,Associated Petroleum Terminals (Immingham) Limited,Immingham,upper,North East Lincolnshire,England,DN402PN,53.6222029504326,-0.174614198143265,385.4752233377974,287.67525573114426
4,Avanti Gas Limited,Ellesmere Port,upper,Wirral,England,CH654HB,53.2863514492894,-2.91284508543136,203.44567987584387,262.5763285460098
5,BAE Systems (Operations) Limited,Samlesbury,upper,Ribble Valley,England,BB27LF,53.777778,-2.576444,227.7573497829698,305.4052258290353
6,BAE Systems Global Combat Systems Munitions Limited,Glascoed,upper,Monmouthshire UA,Wales,NP151XL,51.708898,-2.943911,194.23682704232164,123.71628643619579
7,Baker Hughes Limited,Liverpool,upper,Knowsley,England,L337SY,53.480419,-2.855105,208.14178127323058,279.6822346229019
8,Bardyke Chemicals Limited,Glasgow,upper,South Lanarkshire UA,Scotland,G727XL,55.80403910625311,-4.112506,140.20338569766847,494.8999127328607
9,Beam Suntory UK Limited,Westhorn Maturation Site,upper,Glasgow UA,Scotland,G328XA,55.836709,-4.191642,135.4904787342573,498.25523484115
10,Beiersdorf UK Limited,Holford Industrial Estate,upper,Birmingham,England,B67AX,52.519145,-1.882516,269.63977622313547,191.70437058564494
11,Black Cat Fireworks Limited,Huddersfield,upper,Kirklees,England,HD47AD,53.6292617482232,-1.82715756310664,276.5297475372372,290.21059405426695
12,BOC Limited,Margam Longlands Lane,upper,Neath & Port Talbot UA,Wales,SA132NS,51.56030866272209,-3.74697699828217,138.1515411248073,114.01830810044112
13,BOC Limited,Middlesbrough Tees Dock Road,upper,Redcar & Cleveland,England,TS67RT,54.59742233381311,-1.137913,323.6947395790254,376.2358729927396
14,BOC Limited,Scunthorpe,upper,North Lincolnshire,England,DN156XH,53.598232,-0.646546,354.32776847866364,285.7527398852526
15,BP Chemicals Limited,Saltend,upper,East Riding,England,HU128DS,53.7371148720965,-0.238837759530392,381.28259160155926,297.98560800315
16,BP Oil UK Limited,Buncefield Terminal,upper,Dacorum,England,HP27JA,51.765068,-0.427369,367.5810568458445,123.52004155397572
17,BP Oil UK Limited,Hamble BP Terminal ,upper,Eastleigh,England,SO314NR,50.8573965691304,-1.32129266089582,304.25501587999815,45.70050932089225
18,BP Oil UK Limited,Isle of Grain,upper,Medway Towns UA,England,ME30AY,51.45532,0.708936,446.1108194716793,96.71818456543315
19,Brenntag UK Limited,Lutterworth,upper,Harborough,England,LE174JA,52.4670544291698,-1.196868,315.91888405310266,185.8640074244504
20,Brenntag UK Limited,Thetford,upper,Breckland,England,IP241HP,52.425399396206,0.736931184790635,446.9580637428046,181.66651669158364
21,Brenntag UK Limited,Trafford,upper,Trafford,England,M171QB,53.4632662094217,-2.32325470921011,243.23709907633278,276.56101600585725
22,Briar Chemicals Limited,Norwich,upper,Norwich,England,NR65AP,52.644269,1.258418,481.8882736108325,201.5945191794949
23,Britannia Refined Metals Limited,Gravesend,upper,Gravesham,England,DA119BG,51.4534655559553,0.320906247085502,419.22693435803177,96.31528983671205
24,British Pipeline Agency Limited,Buncefield Terminal,upper,Dacorum,England,HP27HZ,51.763987,-0.425899,367.68151342124395,123.4248755982685
25,British Steel Limited,Scunthorpe,upper,North Lincolnshire,England,DN161AX,53.576795,-0.623836,355.8053762163001,283.81793488205585
26,Cadent Gas Limited,Holford H165 Gas Storage Facility,upper,Cheshire West and Chester UA,England,CW97TG,53.259391,-2.442178,234.59623102972841,258.7141869215411
27,CalaChem Limited,Grangemouth Works,upper,Falkirk UA,Scotland,FK38XG,56.0132976616622,-3.73904996317373,164.74409109040724,512.5306971665177
28,Calor Gas Limited,Canvey Island,upper,Castle Point,England,SS80HR,51.5129479496234,0.574156487909328,436.72252049097875,101.62716702286389
29,Calor Gas Limited,Coryton,upper,Thurrock UA,England,SS179LW,51.515773,0.506496,432.0383952868321,101.82889379181233
30,Calor Gas Limited,Grangemouth,upper,Falkirk UA,Scotland,FK39YL,56.013885084132305,-3.70319115814265,166.9718022829325,512.4400873960876
31,Calor Gas Limited,Neath Operations Centre,upper,Neath & Port Talbot UA,Wales,SA108ER,51.6780725120688,-3.77505426440118,136.890613866953,124.38833792878722
32,Calor Gas Limited,Plymouth Operations Centre,upper,South Hams,England,PL219ER,50.3860909065012,-3.95763447090787,116.62140519370121,13.809118565515746
33,Calor Gas Limited,Port Clarence,upper,Stockton-on-Tees,England,TS21SF,54.5867512413005,-1.22479434188799,318.0786043965441,375.3843680761029
34,Calor Gas Limited,Saxham LPG Filling Plant,upper,St Edmundsbury,England,IP286QY,52.258558,0.636619,440.3199721753246,166.8988798303635
35,Calor Gas Limited,Stoney Stanton,upper,Blaby,England,LE94JJ,52.5593594298019,-1.27893972141958,310.5422675613634,194.12638619467862
36,Campact Limited,Hexam,upper,Northumberland UA,England,NE464JS,54.976772,-2.084882,263.9722280961469,412.3914893897895
37,Carpenter Limited,Glossop Branch,upper,High Peak,England,SK136LE,53.4503273478824,-1.97811271959035,266.02897741763917,274.5483848240315
38,Centrica Storage Limited,Easington,upper,East Riding,England,HU120SX,53.657783,0.115483,404.6008287250083,290.85143296875094
39,CF Fertilisers UK Limited,Billingham,upper,Stockton-on-Tees,England,TS231XT,54.571605669050705,-1.32010324956681,311.90735953737624,374.14869527833116
40,CF Fertilisers UK Limited,Portrack Site,upper,Stockton-on-Tees,England,TS182RF,54.578922,-1.27213,315.0135476277845,374.74152088376013
41,CF Fertilisers UK Limited,Ince Marshes,upper,Cheshire West and Chester UA,England,CH24LB,53.282051,-2.788743,211.66639590363658,261.7831673111036
42,CF Fertilisers UK Limited,North Tees,upper,Stockton-on-Tees,England,TS21TT,54.597849,-1.201026,319.6308341307101,376.3575123858768
43,Chemoxy International Limited,Billingham,upper,Stockton-on-Tees,England,TS231LB,54.571619,-1.320132,311.9055346603036,374.1499455183389
44,Chemoxy International Limited,Middlesbrough,upper,Middlesbrough UA,England,TS36AF,54.576031842228495,-1.2209291275982,318.3069018180296,374.4079121136674
45,Chemring Energetics UK Limited,Ardeer Site,upper,North Ayrshire UA,Scotland,KA203LN,55.625959,-4.726392,100.60513547820602,481.55081146269777
46,Chivas Brothers Limited,Balgray Warehousing,upper,North Ayrshire UA,Scotland,KA151HT,55.7413553844824,-4.58820017842275,110.09992854501081,491.41043171981255
47,Chivas Brothers Limited,Dalmuir Bulk Warehouse,upper,West Dumbartonshire UA,Scotland,G814SA,55.9094024245129,-4.436188,120.78139409473908,506.07499977148746
48,Chivas Brothers Limited,Willowyard Maturation Site,upper,North Ayrshire UA,Scotland,KA151JH,55.7477420179327,-4.65491679671722,105.98502099085835,492.3319562566935
49,CLH Pipeline System (CLH-PS) Limited,Walton on Thames Storage Termininal,upper,Elmbridge,England,KT122HZ,51.3978528859293,-0.414477891532305,368.2367348398392,91.52249476356337
50,CLH Pipeline System (CLH-PS) Limited,Aldermaston PSD Reading,upper,West Berkshire UA,England,RG74QR,51.3844752802552,-1.09991566978714,320.6662674693627,90.98873614890317
51,CLH Pipeline System (CLH-PS) Limited,Backford North PSD,upper,Cheshire West and Chester UA,England,CH24BN,53.238099435631,-2.88525213168542,205.06111983413678,258.1892958335643
52,CLH Pipeline System (CLH-PS) Limited,Hallen PSD Bristol,upper,South Gloucs UA,England,BS107RH,51.5139164128468,-2.6432988695568,214.14146132828475,105.73095130704132
53,CLH Pipeline System (CLH-PS) Limited,Killingholme PSD,upper,North Lincolnshire,England,DN403ED,53.647287,-0.223732,382.24467070564606,289.93252767812555
54,CLH Pipeline System (CLH-PS) Limited,Misterton PSD,upper,Bassetlaw,England,DN104JG,53.428169068140704,-0.834429457777778,341.7093579004602,270.710951832134
55,CLH Pipeline System (CLH-PS) Limited,Rawcliffe Bridge PSD,upper,East Riding,England,DN148SJ,53.6848763291584,-0.941281261439501,335.0081465304881,293.779997199852
56,CLH Pipeline System (CLH-PS) Limited,Redcliffe Bay PSD,upper,North Somerset,England,BS208BL,51.47778013074831,-2.79684945450192,203.37440450140656,103.09447732800163
57,CLH Pipeline System (CLH-PS) Limited,Thetford,upper,Breckland,England,IP241NB,52.42347,0.742540761582139,447.340598452935,181.50140874201452
58,CLH Pipeline System (CLH-PS) Limited,Bramhall,upper,Stockport,England,SK121DS,53.3495286614861,-2.1486032213607,254.40927905792844,265.9629792927767
59,ConocoPhillips (U.K.) Teesside Operator Limited,Seal Sands Terminal,upper,Stockton-on-Tees,England,TS21UH,54.61630228112671,-1.17077765666785,321.61308786150545,377.9895530124668
60,ConocoPhillips (U.K.) Teesside Operator Limited,Middlesbrough,upper,Stockton-on-Tees,England,TS21UH,54.61630228112671,-1.17077765666785,321.61308786150545,377.9895530124668
61,Contract Chemicals Limited,Prescot,upper,Knowsley,England,L349HY,53.464286,-2.857386,207.91917041375325,278.2500181534051
62,Croda Europe Limited,"Rawcliffe Bridge, Goole",upper,East Riding,England,DN148PN,53.6817366795319,-0.939967045753902,335.09006461131077,293.49731441938775
63,DHL Exel Supply Chain Limited,Castleford,upper,Wakefield,England,WF105QL,53.711832,-1.393899,305.2671574025408,296.80221959781693
64,DHL Exel Supply Chain Limited,Doncaster Rossington Road,upper,Doncaster,England,DN119HE,53.436083,-1.06251,326.61345891177405,271.66773108847156
65,DHL Supply Chain Limited,Worksop,upper,Bassetlaw,England,S803AX,53.289589,-1.057739,326.68814813334336,258.59301055540664
66,DHL Supply Chain Limited,Cannock,upper,Cannock Chase,England,WS118JH,52.67816,-2.003448,261.95307128621437,206.01952344191977
67,DHL Supply Chain Limited,Doncaster,upper,Doncaster,England,DN45PD,53.505181,-1.119367,322.96849100812943,277.9122274278484
68,Diageo Scotland Limited,Auchroisk Distillery,upper,Moray UA,Scotland,AB556XS,57.54702917,-3.116921246,211.10237722676098,652.6752380864341
69,Diageo Scotland Limited,Blackgrange/Cambus Bonds,upper,Clackmannan UA,Scotland,FK102PH,56.1303972440784,-3.86818285608008,157.46397448995558,523.8424655114472
70,Diageo Scotland Limited,Bonnybridge Warehouses,upper,Falkirk UA,Scotland,FK41SH,56.0012187721407,-3.90918886707284,154.1162256197583,512.125024485129
71,Diageo Scotland Limited,Broxburn - Westerton Road,upper,West Lothian UA,Scotland,EH525QA,55.9346577628685,-3.47163543924643,180.89428700964905,504.2515702241385
72,Diageo Scotland Limited,Cluny Maturation Complex,upper,Fife UA,Scotland,KY26QP,56.1419917787628,-3.20297159429696,198.667877401771,522.3692186350936
73,Diageo Scotland Limited,Leven Site,upper,Fife UA,Scotland,KY85HD,56.202267,-3.016445,210.49930899097097,527.3023353869539
74,Diageo Scotland Limited,Menstrie Bond,upper,Clackmannan UA,Scotland,FK117EP,56.149587086797,-3.83855852464376,159.4142498434498,525.4870397561035
75,Diageo Scotland Limited,UDV (J & B site) Blythswood,upper,Renfrewshire UA,Scotland,PA49EB,55.882453,-4.39892,122.9069108929474,503.42212318785914
76,Dow Silicones UK Limited,Barry,upper,Vale of Glamorgan UA,Wales,CF632YL,51.4121241959416,-3.23783351209542,172.5543584827998,99.00201281135332
77,Dragon LNG Limited,Dragon LNG Terminal,upper,Pembrokeshire UA,Wales,SA731DP,51.712712,-4.990997,53.5614781960511,133.80658666285308
78,DSM Nutritional Products (UK) Limited,Dalry,upper,North Ayrshire UA,Scotland,KA245JJ,55.7180525382684,-4.71857214769888,101.79005974387854,489.93843299578975
79,Eastham Refinery Limited,South Wirral,upper,Wirral,England,CH651AJ,53.312433,-2.945912,201.36995970620515,265.01082948855355
80,Easy Cleaning Solutions Limited,Thetford,upper,Breckland,England,IP241HF,52.422644439139695,0.737069365334125,446.97055562055834,181.42387112496544
81,Eddie Stobart Logistics Limited,Heywood,upper,Rochdale,England,OL102TR,53.5806383066521,-2.24736221499327,248.66859715777903,286.8468641187774
82,EDF Trading Gas Storage Limited,Hole House Farm Storage Site,upper,Cheshire East UA,England,CW113QN,53.148273847961505,-2.43595115987322,234.58951771528217,248.8114402887595
83,Edrington Group Limited (The),Macallan Distillery,upper,Moray UA,Scotland,AB389RX,57.48464676,-3.20695517,205.4110747259837,647.1294140554969
84,Elanco UK AH Limited,Liverpool,upper,Liverpool,England,L249LN,53.3547482645956,-2.85215068050299,207.77868316670308,268.46531814759464
85,Emerald Kalama Chemical Limited,Widnes,upper,Halton UA,England,WA80RF,53.3761902645257,-2.69952540353834,217.98628881304893,269.8858973549104
86,EnQuest NNS Limited,Sullom Voe Oil Terminal,upper,Shetland,Scotland,ZE29TU,60.4574925769107,-1.2740582527975,327.1443326920569,925.7751209285279
87,EnviroWales Limited,Rassau Industrial Estate,upper,Blaenau Gwent UA,Wales,NP235SD,51.802589318203694,-3.23382438303743,174.75160460404942,132.96172654301563
88,EPC United Kingdom Plc,Alfreton,upper,Amber Valley,England,DE552BE,53.099878,-1.365657,305.8231794771873,242.14043499417903
89,EPC United Kingdom Plc,Harwich,upper,Tendring,England,CO125JW,51.8942021324664,1.216161,480.4379350507288,135.58476704741224
90,Essar Oil (UK) Limited,Stanlow,upper,Cheshire West and Chester UA,England,CH654HB,53.2863514492894,-2.91284508543136,203.44567987584387,262.5763285460098
91,Essar Oil (UK) Limited,Tranmere,upper,Wirral,England,CH421LQ,53.376297,-3.003472,197.84969943391232,270.89842121582296
92,Esseco UK Limited,Wakefield,upper,Wakefield,England,WF15PH,53.67703647537311,-1.484473,299.2275567068016,293.83499140208187
93,Esso Petroleum Company Limited,Avonmouth Terminal,upper,Bristol UA,England,BS119BN,51.525260806381695,-2.6896999999536,210.98035028294254,106.86672431688521
94,Esso Petroleum Company Limited,Birmingham Erdington Terminal,upper,Birmingham,England,B248DN,52.51007331,-1.830543072,273.1289382633771,190.79042033092173
95,Esso Petroleum Company Limited,Fawley Refinery,upper,New Forest,England,SO451TX,50.830679555532306,-1.35459410183893,301.86369729323644,43.45208752889266
96,Esso Petroleum Company Limited,Purfleet,upper,Thurrock UA,England,RM191RS,51.4782156575156,0.248410812161481,414.1943729683459,98.44309578568027
97,Esso Petroleum Company Limited,West London Terminal  Stanwell,upper,Hounslow,England,TW197LZ,51.4532440125192,-0.458860797080145,365.1963012231886,96.36107005464328
98,Evans Vanodine International Plc,Preston,upper,South Ribble,England,PR58AH,53.7244487467212,-2.65043128961142,222.67977109976815,300.8497744546721
99,Exwold Technology Limited,Hartlepool,upper,Hartlepool,England,TS252BE,54.650483,-1.196491,320.02254573741493,381.1224341719121
100,ExxonMobil Chemical Limited,Fife Ethylene Plant Breafoot Bay,upper,Fife UA,Scotland,KY30XR,56.040293,-3.317607,191.03449664210788,513.4037138991871
101,ExxonMobil Chemical Limited,Fife Ethylene Plant Mossmorran,upper,Fife UA,Scotland,KY48EP,56.091597254270894,-3.31366916812619,191.5522698118419,518.1147930640741
102,Faldingworth Defence Limited,Market Rasen,upper,West Lindsey,England,LN83SQ,53.346428162079505,-0.406743,369.9914705419555,263.108485775022
103,Falmouth Petroleum Limited,Falmouth,upper,Cornwall UA,England,TR114NR,50.152101,-5.05658272566438,37.185446139975454,0.0
104,Fine Organics Limited ,Seal Sands,upper,Stockton-on-Tees,England,TS21UB,54.610588,-1.180091,321.0028840988973,377.48394639077014
105,Flogas Britain Limited,Avonmouth LPG Terminal,upper,South Gloucs UA,England,BS107SQ,51.529011342519,-2.65340072015672,213.5039962224147,107.07582556323587
106,Flogas Britain Limited,Birmingham,upper,Birmingham,England,B357BT,52.51215361,-1.788098674,276.0056864238577,190.88318282364435
107,Flogas Britain Limited,Leicester (Merrylees),upper,Hinckley & Bosworth,England,LE99FE,52.651269,-1.309831,308.6401579001124,202.29083195091607
108,Flogas Britain Limited,Llandarcy LPG storage depot,upper,Neath & Port Talbot UA,Wales,SA106JY,51.639107433579106,-3.842857361224,131.99818614342678,121.30826447503478
109,Flogas Britain Limited,Rainham,upper,Havering,England,RM138UH,51.5117903607772,0.172352797267643,408.91833292743934,101.34527887934019
110,Flogas Britain Limited,"Staveley, Chesterfield",upper,Chesterfield,England,S433YN,53.276395,-1.350465,307.20752049411834,257.82618149842574
111,FMC Agro Limited,Deeside,upper,Flintshire UA,Wales,CH52DH,53.201177,-3.008044,196.7276713712465,255.32558561561245
112,Frank Wright Limited,Ashbourne,upper,Derbyshire Dales,England,DE61HA,53.006317,-1.713963,282.32867258568257,234.45462204687055
113,Frontier Agriculture Limited,Hermitage,upper,West Berkshire UA,England,RG189QL,51.443693,-1.278957,308.3591191327382,96.39246221373287
114,Frontier Agriculture Limited,Wickenby Airfield,upper,West Lindsey,England,LN35AX,53.3161660512823,-0.346784433757159,373.9551349877521,260.3832956424276
115,Frontier Agriculture Limited,South Fen Business Park,upper,Lincolnshire County Council,England,PE100DN,52.756204,-0.319091,375.51764757103905,210.62292858279807
116,GEO Specialty Chemicals UK Limited,GEO Specialty / Hythe,upper,New Forest,England,SO453ZG,50.85286,-1.381791,300.00025817780545,45.409561718123314
117,Givaudan UK Limited,Ashford,upper,Ashford,England,TN240LT,51.152978,0.899829,459.74822442383663,70.6684040443638
118,Glen Turner Distillery Limited,Starlaw Park,upper,West Lothian UA,Scotland,EH548SF,55.891301,-3.575468,174.19035404802148,500.6640718757981
119,Gower Chemicals Limited,"Sherburn in Elmet, Leeds",upper,Selby,England,LS256ES,53.788786,-1.230454,316.1688905899283,303.4549977512106
120,Great Bear Distribution Limited,Rotherham Warehouse,upper,Rotherham,England,S668HN,53.429282,-1.240151,314.8355853115047,271.29693447743375
121,Great Bear Distribution Limited,Markham Vale,upper,Chesterfield,England,S445HY,53.2416618382447,-1.32794498390551,308.632733789694,254.69709005283994
122,Greenergy Terminals Limited,Mayflower and Cattedown Terminal ,upper,Plymouth UA,England,PL40RJ,50.3648228164028,-4.12248588658415,104.83168553768701,12.81574035962467
123,Greenergy Terminals Limited,Cardiff Oil Terminal,upper,Cardiff UA,Wales,CF104RP,51.462039,-3.149728,178.89378145768399,102.99491611381654
124,H J Enthoven Limited,Darley Dale Smelter,upper,Derbyshire Dales,England,DE42LP,53.156392,-1.610275,289.63832077059396,247.58965942132454
125,H W Coates Limited,"Byley, Middlewich",upper,Cheshire West and Chester UA,England,CW109NT,53.213001,-2.419493,235.9293387578105,254.52148273255943
126,H W Coates Limited,Grangemouth North Site,upper,Falkirk UA,Scotland,FK38UU,56.016804,-3.730031,165.3245331711476,512.8167864794045
127,H W Coates Limited,Grangemouth South Site,upper,Falkirk UA,Scotland,FK38UU,56.016804,-3.730031,165.3245331711476,512.8167864794045
128,H W Coates Limited,Newmarket,upper,East Cambridgeshire,England,CB87LG,52.284522,0.394304,423.81241595017605,169.0338894513443
129,Haltermann Carless UK Limited,Harwich,upper,Tendring,England,CO124SS,51.943369,1.242325,482.13959744189583,139.92563419533917
130,Hanson Logistics Limited,Huddersfield,upper,Kirklees,England,HD21FQ,53.66716,-1.74774108404588,281.8673921311419,293.43967414911276
131,Hexion UK Limited,"Cowie, Stirling",upper,Stirling UA,Scotland,FK77BQ,56.0781315785034,-3.87003900237908,157.0236229924642,519.0372229375662
132,Hexion UK Limited,Penarth,upper,Vale of Glamorgan UA,Wales,CF645YU,51.4080529440887,-3.22737139982387,173.25887078573425,98.60781235278773
133,Heyford Park Management Company Limited,Southern Bomb Store/Site,upper,Cherwell,England,OX255HD,51.928819,-1.251214,311.2056275636715,138.66539537586095
134,Heys Group Limited (The),Essendine,upper,Rutland UA,England,PE94LE,52.70071975150049,-0.452275514019196,366.5163084178595,205.77383028016948
135,Holchem Laboratories Limited,Pilsworth/Bury,upper,Bury,England,BL98RD,53.57449889,-2.280127129,246.48544115967096,286.3834162725616
136,Holford Gas Storage Limited,Holford Brine Field,upper,Cheshire West and Chester UA,England,CW97TD,53.262369778636,-2.43609187245955,235.01197168943054,258.9621514358805
137,Horse Hill Developments Limited,Horse Hill Well Site,upper,Reigate & Banstead,England,RH60RB,51.181272018940895,-0.208545632393458,382.4547704247528,72.65283260918841
138,Humber LPG Terminal Limited,Humber LPG Terminal,upper,North Lincolnshire,England,DN403EA,53.6392127712454,-0.226748368863465,382.04299805255874,289.2102686084304
139,Humbly Grove Energy Limited,Humbly Grove Oilfield,upper,Basingstoke,England,GU345SY,51.193809112101505,-1.00982672307251,326.6254406127613,74.33273905973056
140,Huntsman Advanced Materials (UK) Limited,Cambridge,upper,South Cambridgeshire,England,CB224QB,52.087934,0.160071,407.927752652652,151.68764162776415
141,ICoNiChem Widnes Limited,Widnes,upper,Halton UA,England,WA80RU,53.363387108572894,-2.70918846318419,217.2920094664158,268.77493769658577
142,IGas Energy Production Limited,Gainsborough Well Site 05 Oil Depot,upper,Bassetlaw,England,DN211AY,53.398198624200305,-0.78209692831241,345.1396894780163,267.9863958748265
143,Industrial Chemicals Limited,Port Clarence Works,upper,Stockton-on-Tees,England,TS21SD,54.5849850600734,-1.20878194751321,319.1067392396103,375.20243903415667
144,Ineos Chemicals Grangemouth Limited,Grangemouth,upper,Falkirk UA,Scotland,FK39XH,56.0194822879994,-3.72482399505196,165.6635193245435,513.0421758648954
145,Ineos Enterprises Group Limited,Sulphuric Acid Plant,upper,Halton UA,England,WA74JE,53.325774547209505,-2.69446626129696,218.11007432311337,265.3773678600737
146,Ineos FPS Limited,Cruden Bay ,upper,Aberdeenshire UA,Scotland,AB420QH,57.39133944,-1.86860991,285.0387245142909,634.8477970531735
147,Ineos FPS Limited,Dalmeny Installation,upper,Edinburgh UA,Scotland,EH309UA,55.9766217544368,-3.37193099602685,187.32066932779426,507.7406442625047
148,Ineos FPS Limited,Kinneil,upper,Falkirk UA,Scotland,FK39XH,56.0194822879994,-3.72482399505196,165.6635193245435,513.0421758648954
149,Ineos FPS Limited,PLPG Installation,upper,Falkirk UA,Scotland,FK39XH,56.0194822879994,-3.72482399505196,165.6635193245435,513.0421758648954
150,Ineos FPS Limited,RLPG Installation,upper,Falkirk UA,Scotland,FK38UD,56.030206,-3.696736,167.46923077416207,513.9159940570062
151,INEOS Nitriles (UK) Limited,Seal Sands Chemical Works,upper,Stockton-on-Tees,England,TS21TX,54.5758514644008,-1.24494188356348,316.75925799256885,374.42487266475155
152,Innospec Limited,Ellesmere Port,upper,Cheshire West and Chester UA,England,CH654EY,53.2825660049035,-2.8782816604047,205.72337654720002,262.1232739764346
153,Inovyn ChlorVinyls Limited,"Castner Kellner\Rock Savage, Runcorn",upper,Halton UA,England,WA74JE,53.325774547209505,-2.69446626129696,218.11007432311337,265.3773678600737
154,Inovyn ChlorVinyls Limited,Newton Aycliffe,upper,Durham County UA,England,DL56EA,54.609384725856,-1.58643729264502,294.8403157135053,378.0065922348181
155,Inter Terminals Eastham Limited,Eastham Site One and Site Two,upper,Wirral,England,CH620BA,53.315728,-2.954226,200.83350588073495,265.3326791716763
156,Inter Terminals Grangemouth Limited,Grangemouth,upper,Falkirk UA,Scotland,FK38UD,56.030206,-3.696736,167.46923077416207,513.9159940570062
157,Inter Terminals Immingham Limited,Immingham East Terminal,upper,North East Lincolnshire,England,DN402QW,53.628512,-0.188028,384.5924347237734,288.2428970805563
158,Inter Terminals Immingham Limited,Immingham West Terminal,upper,North East Lincolnshire,England,DN402QU,53.632689,-0.194958,384.13674130952927,288.6184112807732
159,Inter Terminals Riverside Limited,"Riverside, Billingham",upper,Stockton-on-Tees,England,TS231PX,54.587915,-1.261323,315.72778923665584,375.54086720555233
160,Inter Terminals Seal Sands Limited,"North Terminal, Middlesbrough",upper,Stockton-on-Tees,England,TS21UB,54.610588,-1.180091,321.0028840988973,377.48394639077014
161,Inter Terminals Tyneside Limited,North Shields,upper,North Tyneside,England,NE296DY,54.989886,-1.464698,303.5610582999511,412.35960441515044
162,Inter Terminals UK Limited,Clydebank,upper,West Dumbartonshire UA,Scotland,G811LX,55.891482,-4.390345,123.50377889142663,504.2099311376114
163,International Flavours & Fragrances,Haverhill,upper,St Edmundsbury,England,CB98LJ,52.0781329089929,0.430951145223882,426.4415368808039,150.92335041283923
164,International Paint Limited,Gateshead,upper,Gateshead,England,NE100JY,54.957039,-1.558064,297.52553651574306,409.5268934827691
165,Inver House Distillers Limited,Airdrie Maturation,upper,North Lanarkshire UA,Scotland,ML68PL,55.862666887553104,-3.939378867051,151.36671888151665,499.5215167737915
166,Island Gas Limited,Sudbrooke,upper,Lincoln,England,LN22QX,53.266955,-0.435233,368.0465118891081,256.0366682907311
167,James M Brown Limited,"Napier Street, Stoke-on-Trent",upper,Stoke-on-Trent,England,ST44NX,52.999757,-2.172609,251.6367789668863,234.91308082801424
168,John Dewar & Sons Limited,Poniel,upper,South Lanarkshire UA,Scotland,ML119SH,55.6672343406185,-3.91842437368637,151.44349113873844,481.50802930792406
169,John Dewar & Sons Limited,Westthorn Distillery,upper,Glasgow UA,Scotland,G328XR,55.8419052880954,-4.18902745259009,135.68822422503854,498.7201389318534
170,Johnson Matthey Plc,Clitheroe,upper,Ribble Valley,England,BB74QB,53.88459831,-2.386423777,240.63059045791567,314.4451246970798
171,Johnson Matthey Plc,Royston,upper,North Hertfordshire,England,SG85HE,52.05408905231769,-0.034738624794979,394.6158189817593,148.70462614663938
172,Johnson Matthey Plc,Enfield,upper,Enfield,England,EN37PW,51.651241,-0.025107,395.25895110552506,113.47671846737694
173,Jotun Paints (Europe) Limited,Flixborough,upper,North Lincolnshire,England,DN158RR,53.6232917257351,-0.683590809845736,351.91018512632013,288.02411323771366
174,Kemira Chemicals (UK) Limited,Bradford,upper,Bradford,England,BD47TT,53.77971078,-1.744837566,282.3657907074337,303.5184484944343
175,KMG Ultra Pure Chemicals Limited,Alfreton,upper,Amber Valley,England,DE554DA,53.066903,-1.373558,305.22555772546866,239.22235806887102
176,Kronospan Limited,Chirk,upper,Wrexham UA,Wales,LL145NT,52.9368216127462,-3.06191090758758,191.88971513936565,232.05195384905892
177,LANXESS Solutions UK Limited,Trafford Park,upper,Trafford,England,M171WT,53.470493770350096,-2.326051,243.0783497501684,277.21375000865146
178,Lanxess Urethanes UK Limited,Accrington,upper,Rossendale,England,BB52SL,53.72615273,-2.337530355,243.2524220031774,300.1066149428243
179,Liberty Aluminium Lochaber Limited,Lochaber Smelter,upper,Highland UA,Scotland,PH336TH,56.829075694432305,-5.0726083133296,88.78154132258328,594.1748411336757
180,Libra Speciality Chemicals Limited,Irlam,upper,Salford,England,M445LF,53.427413656533695,-2.43057145991914,236.00318684962812,273.6561209095307
181,Lucite International UK Limited,Cassel Works Billingham,upper,Stockton-on-Tees,England,TS231LE,54.586997,-1.275901,314.7868737824409,375.4784906478103
182,Lufthansa Technik Landing Gear Services UK Limited,Hayes,upper,Hillingdon,England,UB31HP,51.505092088175694,-0.435008984507213,366.8832236868422,100.85866893985076
183,MacDermid Performance Solutions UK Limited,Sparkbrook,upper,Birmingham,England,B112PN,52.462898,-1.860085387,270.99562066053306,186.69608807187842
184,Major Storage Company Limited (The),Tutbury,upper,East Staffordshire,England,DE139HS,52.857422,-1.715358,281.8399266813876,221.2526921975209
185,Makin Metal Powders (UK) Limited,Rochdale,upper,Rochdale,England,OL129DT,53.6319949191668,-2.14463557854358,255.61717915307506,291.180584737976
186,Mexichem UK Limited,Runcorn,upper,Halton UA,England,WA74JE,53.325774547209505,-2.69446626129696,218.11007432311337,265.3773678600737
187,Mowi Scotland Limited,Kyleakin,upper,Highland UA,Scotland,IV418PQ,57.2721383389276,-5.7434651136379,52.286434611442644,639.155734835515
188,Nalco Manufacturing Limited,Northwich                     ,upper,Cheshire West and Chester UA,England,CW83AA,53.252227,-2.540335,228.04509371406115,258.36028302048544
189,National Grid Gas PLC,Bacton North Sea Gas Terminal,upper,North Norfolk,England,NR120JD,52.8557966810764,1.45996181899215,495.00534677929323,220.63359094973794
190,National Grid Gas PLC,St. Fergus Gas Terminal,upper,Aberdeenshire UA,Scotland,AB423EP,57.57063161,-1.838158246,287.4017409540849,651.5907400798674
191,National Grid Grain LNG Limited,Isle of Grain LNG Site,upper,Medway Towns UA,England,ME30AB,51.4480176396569,0.678752674773595,444.02714407229627,96.0578639497744
192,Navigator Terminals North Tees Limited,North Tees,upper,Stockton-on-Tees,England,TS21TT,54.597849,-1.201026,319.6308341307101,376.3575123858768
193,Navigator Terminals Seal Sands Limited,Stockton on Tees,upper,Stockton-on-Tees,England,TS21UA,54.609626,-1.168111,321.7724129671027,377.38095198267456
194,Navigator Terminals Thames BV Limited,West Thurrock,upper,Thurrock UA,England,RM203ED,51.472717,0.27527,416.05674577860907,97.97326040164353
195,Navigator Terminals Windmill Limited,Windmill Site,upper,Vale of Glamorgan UA,Wales,CF645RZ,51.4032814624774,-3.23901796835752,172.42892025158642,98.23935523881028
196,Nippon Gohsei UK Limited,Saltend,upper,East Riding,England,HU128DS,53.7371148720965,-0.238837759530392,381.28259160155926,297.98560800315
197,North British Distillery Company Limited,Muirhall Bond,upper,West Lothian UA,Scotland,EH558NT,55.8403921263853,-3.612501,171.59050129811328,496.132535526654
198,Novartis Grimsby Limited,Grimsby,upper,North East Lincolnshire,England,DN312SR,53.5843668449393,-0.116691533823372,389.28834139160324,284.2790732381932
199,Nufarm UK Limited,Bradford,upper,Bradford,England,BD129EJ,53.74112886,-1.7552595,281.575359203233,300.0807840192606
200,Oikos Storage Limited,Canvey Island,upper,Castle Point,England,SS80NR,51.5110480329818,0.553698363849966,435.30846849062146,101.44787872517554
201,Oil and Pipelines Agency,Achnasheen,upper,Highland UA,Scotland,IV222HU,57.835126,-5.577036,67.37705193006764,690.7475609356197
202,Oil and Pipelines Agency,Campbeltown,upper,Argyll & Bute UA,Scotland,PA286RD,55.41358,-5.571878,45.85019112585036,466.93982078335694
203,Oil and Pipelines Agency,Helensburgh,upper,Argyll & Bute UA,Scotland,G840EH,56.0701923647801,-4.82367448324463,97.95636931851453,522.7924929172686
204,Oil and Pipelines Agency,Loch Striven,upper,Argyll & Bute UA,Scotland,PA237UL,55.889711,-5.040018,83.11712509550892,507.37749247527427
205,Oil and Pipelines Agency,Plumley,upper,Cheshire West and Chester UA,England,WA169SJ,53.256747447113106,-2.42735568661809,235.57128649823585,258.4369613755093
206,Oil and Pipelines Agency,"Thanckes, Torpoint",upper,Cornwall UA,England,PL112PG,50.3860000039306,-4.2096250217779,98.80030051829868,15.073626915620025
207,Oil and Pipelines Agency,Gosport,upper,Gosport,England,PO124TH,50.7996031416934,-1.1328921185634,317.3777033999063,40.436211164357246
208,OQEMA Limited,Carterton,upper,West Oxfordshire,England,OX183EZ,51.752595805762,-1.59469548739819,287.23257045062667,123.84864733187214
209,Outokumpu Stainless Limited,Stevenson Road Sheffield,upper,Sheffield,England,S93XG,53.3941051651772,-1.438015,301.65155819844233,268.46358177107277
210,Packed Chlorine Limited,Runcorn,upper,Halton UA,England,WA74HZ,53.324815,-2.75504872822107,214.0870604927294,265.4831587519111
211,Perenco UK Limited,Bacton Gas Terminal,upper,North Norfolk,England,NR120JF,52.8569140653652,1.46235387636641,495.16337470962503,220.73669473010796
212,Perenco UK Limited,Hull Dimlington,upper,East Riding,England,HU120SU,53.6601584843066,0.113801076658715,404.4895762198912,291.0639781067025
213,Perenco UK Limited,Wytch Heath Gathering Station,upper,Purbeck,England,BH205JR,50.66584165,-2.036693511,253.4751124173925,30.68498532618287
214,Petroineos Manufacturing Scotland Limited,Finnart Ocean Terminal,upper,Argyll & Bute UA,Scotland,G840EY,56.113306558602495,-4.83014761215934,97.89105035114443,526.7909297098181
215,Petroineos Manufacturing Scotland Limited,Grangemouth Complex,upper,Falkirk UA,Scotland,FK39XH,56.0194822879994,-3.72482399505196,165.6635193245435,513.0421758648954
216,Phillips 66 Limited,Humber Refinery,upper,North Lincolnshire,England,DN403DW,53.63313247273,-0.252185904397512,380.36367480615365,288.67284206853265
217,Phillips 66 Limited,Immingham Pipeline Centre,upper,North East Lincolnshire,England,DN402PB,53.635227,-0.202322,383.65200800474486,288.84734367251076
218,Phillips 66 Limited,Immingham Propylene Storage,upper,North East Lincolnshire,England,DN402QU,53.632689,-0.194958,384.13674130952927,288.6184112807732
219,Phillips 66 Limited t/a Crude Oil Terminals (Humber) Limited,Tetney Oil Terminal,upper,East Lindsey,England,DN365NX,53.4966625791286,-0.006391787738003,396.56830177020004,276.42772508044254
220,Portland Bunkers UK Limited,"East Weare Batteries, Portland Port",upper,Weymouth & Portland,England,DT51PH,50.5620164972353,-2.42655957879898,225.6404514489674,22.840093837598488
221,PPG Industries (UK) Limited,Riverside works,upper,Mid Suffolk,England,IP142AD,52.178199,1.010261,465.872760001999,160.20325501824664
222,Prefere Resins UK Limited,Newton Aycliffe,upper,Durham County UA,England,DL56UE,54.5983359646096,-1.572619,295.702367144853,376.9809541308714
223,Procter & Gamble Product Supply (UK) Limited,Grays,upper,Thurrock UA,England,RM204AL,51.47298,0.293586,417.32521386520614,98.00243584198415
224,Puma Energy (UK) Limited,Milford Haven,upper,Pembrokeshire UA,Wales,SA733JD,51.792556,-4.979123,54.981627376793654,140.68167752180807
225,px (TGPP) Limited,"Teesside Gas Processing Plant, Seal Sands",upper,Stockton-on-Tees,England,TS21UB,54.610588,-1.180091,321.0028840988973,377.48394639077014
226,PX Limited,St Fergus,upper,Aberdeenshire UA,Scotland,AB423EP,57.57063161,-1.838158246,287.4017409540849,651.5907400798674
227,QinetiQ Limited,MOD Shoeburyness,upper,Southend UA,England,SS39SR,51.534647573281504,0.802910349040531,452.52484753822586,103.70617771892239
228,R and A Properties,Stradey Park Business Centre,upper,Carmarthenshire UA,Wales,SA148YP,51.697981,-4.0874459533,115.52582704887652,127.59763116812564
229,Rase Distribution Limited,Lincoln/Rase Distribution Company ,upper,West Lindsey,England,LN35SY,53.203712583650706,-0.303951453656353,376.7472291618458,250.346900854242
230,Rase Distribution Limited,Wickenby Airfield,upper,West Lindsey,England,LN35AX,53.3161660512823,-0.346784433757159,373.9551349877521,260.3832956424276
231,Reckitt Benckiser (UK) Limited,Derby,upper,Derby City UA,England,DE249GG,52.8908677688112,-1.48076424589385,297.66093475951357,223.77765656141582
232,Redcliffe International (Shipping) Limited,Heapey Storage,upper,Chorley,England,PR68TB,53.677246,-2.594508,226.16365927599574,296.45564215073136
233,Redcliffe International (Shipping) Limited,Newlyn Downs,upper,Cornwall UA,England,TR85NJ,50.352318633918,-5.06551902873469,38.06261077359534,17.106721910658507
234,Repsol Sinopec Resources UK Limited,Flotta Terminal,upper,Orkney,Scotland,KW163NP,58.8259834522546,-3.10406124626295,218.41232898420148,773.3021222598245
235,Repsol Sinopec Resources UK Limited ,Nigg Oil Terminal,upper,Highland UA,Scotland,IV191QF,57.7062682964124,-4.02768020202905,157.9157640108186,670.9788518084674
236,Robert McBride Limited,Middleton Head Office,upper,Rochdale,England,M244DP,53.5467382523378,-2.20228142541873,251.5258434646867,283.7009324287301
237,Roxel (UK Rocket Motors) Limited,Summerfield,upper,Wychavon,England,DY117RZ,52.35748595364431,-2.24105634395627,244.83887052171585,178.33879412004808
238,Royal Mint Limited,Pontyclun,upper,"Rhondda, Cynon, Taff UA",Wales,CF728YT,51.555048,-3.390758,162.70165183831477,112.02809000898424
239,Runcorn MCP Limited,Runcorn,upper,Halton UA,England,WA74JE,53.325774547209505,-2.69446626129696,218.11007432311337,265.3773678600737
240,SABIC UK Petrochemicals Limited,North Tees,upper,Stockton-on-Tees,England,TS21TT,54.597849,-1.201026,319.6308341307101,376.3575123858768
241,SABIC UK Petrochemicals Limited,Olefins Manufacturing,upper,Redcar & Cleveland,England,TS104RG,54.585439,-1.128171,324.3007863981268,375.13764342562763
242,Saltend Chemicals Park Limited,Saltend,upper,East Riding,England,HU128DS,53.7371148720965,-0.238837759530392,381.28259160155926,297.98560800315
243,Scotland Gas Networks PLC,Stornoway LPG Storage Installation,upper,Western Isles,Scotland,HS12SL,58.207762,-6.370464,24.5649685747087,730.5657415491469
244,ScottishPower Energy Management Limited,Lindholme Compressor Station,upper,Doncaster,England,DN76TE,53.549486,-0.960315,333.5517678162231,281.68237404483443
245,Sellafield Limited,Sellafield,upper,Copeland,England,CA201PG,54.419213,-3.500704,170.64064228493243,366.2908723269675
246,Shell U.K. Limited,Bacton Natural Gas Terminal,upper,North Norfolk,England,NR120JE,52.8578369821071,1.4624719865141,495.1692142427644,220.81867537079552
247,Shell U.K. Limited,Braefoot Bay - Burntisland,upper,Fife UA,Scotland,KY30XR,56.040293,-3.317607,191.03449664210788,513.4037138991871
248,Shell U.K. Limited,"Mossmorran, Fife NGL Plant - Cowdenbeath",upper,Fife UA,Scotland,KY48EL,56.1127177656762,-3.344814,189.73728868860374,520.1729969233184
249,Shell U.K. Limited,"Peterhead, St Fergus Gas Plant ",upper,Aberdeenshire UA,Scotland,AB423EP,57.57063161,-1.838158246,287.4017409540849,651.5907400798674
250,Shell U.K. Oil Products Limited,"Kingsbury, South Terminal",upper,North Warwickshire,England,B782EA,52.5728,-1.669883,284.1579823416239,195.99261130952254
251,Shell U.K. Oil Products Limited,Gatwick Fuel Farm - GASHCo/Shell,upper,Crawley,England,RH60JE,51.159367,-0.185811,384.0332906877308,70.74992543928602
252,Sherwin-Williams Protective & Marine Coatings,Bolton,upper,Bolton,England,BL22AL,53.58143971,-2.418028738,237.41434246936691,287.3770819317665
253,SI Group-UK Limited,Wolverhampton,upper,South Staffordshire,England,WV107BT,52.678741768895506,-2.12374173489077,253.85045033100087,206.3629555312441
254,SNF Oil and Gas Limited,Billingham,upper,Stockton-on-Tees,England,TS231JG,54.593938625048,-1.28580652625314,314.1629004197746,376.12170033321354
255,Solenis UK Industries Limited,Bradford,upper,Bradford,England,BD120JZ,53.75143066,-1.755988273,281.55576058621523,301.00556323417004
256,Solenis UK Industries Limited,Grimsby,upper,North East Lincolnshire,England,DN312SY,53.5803635839012,-0.09975,390.40601941440076,283.9187505506452
257,Solutia UK Limited,Newport,upper,Newport UA,Wales,NP194XF,51.566797268652095,-2.96234646036944,192.32797387820364,111.40876063579162
258,Solvay Solutions UK Limited,Oldbury,upper,Sandwell,England,B694LN,52.492773,-2.009060776,261.0009137658718,189.6698810411508
259,South Hook LNG,Milford Haven,upper,Pembrokeshire UA,Wales,SA733SU,51.719284,-5.084222,47.214207553193205,134.94194343648815
260,South Tees Site Company Limited,Redcar,upper,Redcar & Cleveland,England,TS105QW,54.609013,-1.108484,325.6104335594573,377.2491133208714
261,Spirit Energy Production UK Limited,Barrow in Furness,upper,Barrow-in-Furness,England,LA130QS,54.0981556821228,-3.18378810201571,189.5005060573753,336.16393832575204
262,Springfields Fuels Limited,Springfield Works,upper,Fylde,England,PR40XJ,53.7776946176058,-2.81512761000661,212.0911299263205,306.1353831338729
263,SSE Hornsea Limited,Aldbrough,upper,East Riding,England,HU114QA,53.821394,-0.109738,389.78802492640193,305.52011734178404
264,SSE Hornsea Limited,Hornsea Storage Installation Skipsea Road,upper,East Riding,England,YO258ER,53.946502,-0.206792626397558,383.45805651920654,316.77559234928185
265,Star Energy Weald Basin Limited,Holybourne Terminal,upper,East Hampshire,England,GU344JD,51.168228,-0.935169,331.7910078760802,72.02850682368398
266,Stepan UK Limited,Stalybridge,upper,Tameside,England,SK151PH,53.48107925137911,-2.06449935349112,260.411101567423,277.49590171268983
267,Sterling Pharma Solutions Limited,Dudley,upper,North Tyneside,England,NE237QG,55.0623670111516,-1.594402,295.4733105745197,419.18199306080896
268,Stolthaven Dagenham Limited,"Choats Road, Dagenham",upper,Barking & Dagenham,England,RM96PU,51.5177173659116,0.139540210876087,406.6463699707134,101.85498277543729
269,Storengy UK Limited,Stublach Gas Storage Site,upper,Cheshire East UA,England,CW97SE,53.23555,-2.46421,233.04076805969484,256.654826034131
270,Surfachem Limited,Elland,upper,Calderdale,England,HX59JR,53.678235,-1.824323,276.85619525442786,294.58855661166444
271,Suttons & Sons (St. Helens) Limited,St Helens,upper,St Helens,England,WA95BW,53.429671,-2.74331343039595,215.31342644119067,274.792703355492
272,Syngenta Limited,Grangemouth Works,upper,Falkirk UA,Scotland,FK38XG,56.0132976616622,-3.73904996317373,164.74409109040724,512.5306971665177
273,Synthite Limited,Mold,upper,Flintshire UA,Wales,CH71BT,53.1754706925212,-3.14951850907939,187.19241236144998,253.5466787639175
274,Tata Steel UK Limited,Port Talbot Steelworks,upper,Neath & Port Talbot UA,Wales,SA131RE,51.5892467934067,-3.79164039621654,135.23739223609886,116.73663029488534
275,Tennants Fine Chemicals Limited,Staffordshire,upper,Staffordshire Moorlands,England,ST138LD,53.110594,-2.039382,260.89671687067926,244.42914446873647
276,Thor Specialities (UK) Limited,Wincham,upper,Cheshire West and Chester UA,England,CW96GB,53.27368,-2.48250183636839,231.97167961938584,260.10158358871377
277,Tor Coatings Limited,Gateshead,upper,Gateshead,England,NE108YX,54.937391,-1.517074,300.0943354255199,407.6688038134844
278,Total E&P UK Limited,Laggan Toremore Project,upper,Shetland,Scotland,ZE29UN,60.469712586248306,-1.25736278584898,328.085409955009,926.9368335641093
279,Total Lindsey Oil Refinery Limited,Lindsey Oil Refinery,upper,North Lincolnshire,England,DN403LW,53.639927,-0.257593,380.0099053676576,289.2828185348608
280,Tradebe Fawley Limited,Hythe/Tradebe Fawley Limited,upper,New Forest,England,SO453NX,50.849824,-1.38588,299.70696658346054,45.15476754632664
281,Tradebe Solvent Recycling Limited,Hendon Dock Processing Site,upper,Sunderland,England,SR12ES,54.902346,-1.35812809132534,310.16874472410757,404.2260100171625
282,Tradebe Solvent Recycling Limited,Morecambe,upper,Lancaster,England,LA33JW,54.029396754649,-2.89472765704612,208.00940146180943,328.9820573067782
283,Tradebe Solvent Recycling Limited,Rye Harbour Road,upper,Rother,England,TN317TE,50.942008,0.747898,449.3908297455648,52.274465890985994
284,Treatt Plc,Bury St Edmunds,upper,St Edmundsbury,England,IP326NL,52.2668400079511,0.699765,444.60864864298975,167.67723132883793
285,Tronox Pigment UK Limited,Grimsby,upper,North East Lincolnshire,England,DN402PR,53.614612,-0.163724,386.19149219090474,286.99358618083625
286,Unilever UK Limited,Leeds,upper,Leeds,England,LS142AR,53.830228,-1.456811,301.3981673051922,307.52149997613833
287,Unilever UK Limited,Port Sunlight - Unilever Home & Personal Care,upper,Wirral,England,CH624ZD,53.3619441940707,-2.99764961073387,198.16841605981412,269.59920565498123
288,United Agri Products Limited,Huntingdon,upper,Huntingdon,England,PE284JH,52.390497,-0.258462057589407,379.4520087684392,178.30955714091397
289,Univar Solutions UK Limited,Cadishead,upper,Salford,England,M445AX,53.427246,-2.432346,235.88508610047515,273.64615039572345
290,Univar Solutions UK Limited,"Cargo Fleet, Middlesbrough",upper,Middlesbrough UA,England,TS38BD,54.57556490829489,-1.19895538898277,319.7219310101819,374.33570710587856
291,Univar Solutions UK Limited,"Hale Road Industrial Estate, Widnes",upper,Halton UA,England,WA88XW,53.350491624524,-2.76954577849872,213.2360319567425,267.81716266953117
292,Urenco ChemPlants Limited,Chester,upper,Cheshire West and Chester UA,England,CH16ER,53.263537,-2.952059,200.73766603103905,260.67906031622397
293,Vale Europe Limited,Clydach Refinery,upper,Neath & Port Talbot UA,Wales,SA65QR,51.6957297651508,-3.88882771278222,129.16799179299187,126.4495986003426
294,Valero Energy Limited,Pembroke Refinery,upper,Pembrokeshire UA,Wales,SA715SJ,51.686853,-5.01457,51.746316900820375,131.70032135614247
295,Valero Logistics UK Limited,"Cardiff, Roath Dock",upper,Cardiff UA,Wales,CF104US,51.467522,-3.143393,179.3581479311771,103.4470170626355
296,Valero Logistics UK Limited,Kingsbury ,upper,North Warwickshire,England,B782EF,52.56772451,-1.671691701,284.02272999461417,195.5482010664955
297,Valero Logistics UK Limited,Plymouth Terminal Site,upper,Plymouth UA,England,PL40RY,50.365998447994706,-4.1147340461843,105.3873343919152,12.876664666812303
298,Valero Logistics UK Limited,Trafford Park,upper,Trafford,England,M171BS,53.4728172107456,-2.31113931019243,244.07287806514213,277.3812566453462
299,Valero Pembrokeshire Oil Terminal Limited,Waterston Refinery,upper,Pembrokeshire UA,Wales,SA731DR,51.711064,-4.987877,53.76311648513649,133.6446027284369
300,Venator Materials UK Limited,Hartlepool - Greatham Site,upper,Hartlepool,England,TS252DD,54.631763773066304,-1.20349045265351,319.53669303415194,379.43469920354573
301,Veolia ES (UK) Limited,Sheffield,upper,North East Derbyshire,England,S212DR,53.327928,-1.30262406190673,310.4920397818874,262.34582450151265
302,Versalis UK Limited,Grangemouth,upper,Falkirk UA,Scotland,FK39XE,56.0038069972419,-3.67554733034164,168.62693667894547,511.4022906011405
303,Vertellus Specialities UK Limited,Middlesbrough,upper,Stockton-on-Tees,England,TS21UB,54.610588,-1.180091,321.0028840988973,377.48394639077014
304,Vertellus Specialties UK Limited,Widnes,upper,Knowsley,England,WA88NS,53.35660047330649,-2.79746689596892,211.41157332753954,268.45151457695874
305,Vertellus Specialties UK Limited,Workington,upper,Allerdale,England,CA141JJ,54.6526021603994,-3.55534659742617,168.42280044463126,387.60484241033464
306,Victrex Manufacturing Limited,Victrex DFDPM,upper,Rotherham,England,S614QH,53.4405544552326,-1.36350143669881,306.6894943085696,272.4890529244117
307,Vita Cellular Foams (UK) Limited,Manchester,upper,Rochdale,England,M242DB,53.551710148685906,-2.17891021889241,253.08571912093112,284.0862840052014
308,Vivergo Fuels Limited,Saltend Hull,upper,East Riding,England,HU128DS,53.7371148720965,-0.238837759530392,381.28259160155926,297.98560800315
309,Vopak Services UK Limited,Thames Oil Port,upper,Thurrock UA,England,SS179LL,51.5129928498092,0.512382997384604,432.4479028267536,101.59054272799312
310,Vynova Runcorn Limited,Runcorn,upper,Halton UA,England,WA74JE,53.325774547209505,-2.69446626129696,218.11007432311337,265.3773678600737
311,W H Bowker Limited,Droitwich,upper,Wychavon,England,WR90NS,52.3300250602222,-2.17796890284665,249.0281070955541,175.75792919763353
312,W H Bowker Limited,Knowsley Industrial Park,upper,Knowsley,England,L337SG,53.478018,-2.857799,207.9530387303028,279.47682987606004
313,W H Bowker Limited,Ripon,upper,Harrogate,England,HG45HP,54.1761269001374,-1.48043355825167,300.65239152492273,338.66862683224326
314,Warehouse One Distribution Limited,Winsford,upper,Cheshire West and Chester UA,England,CW73BE,53.209157,-2.50642605997607,230.13100296707816,254.42826283431395
315,Warwick International Limited,Mostyn Docks,upper,Flintshire UA,Wales,CH89HE,53.3189958947312,-3.26901194548399,179.97024907843164,266.7586749010993
316,Warwickshire Oil Storage Limited,Kingsbury,upper,North Warwickshire,England,B782EF,52.56772451,-1.671691701,284.02272999461417,195.5482010664955
317,Whyte and MacKay Limited,Invergordon Distilery,upper,Highland UA,Scotland,IV180HP,57.6941119733828,-4.15646999486292,150.20144368175764,670.3852682444699
318,William Blythe Limited,"Holland Bank, Church",upper,Hyndburn,England,BB54PD,53.752697,-2.393194164,239.69291476889734,302.6356463170864
319,William Grant & Sons Distillers Limited,Dufftown,upper,Moray UA,Scotland,AB554DH,57.454871,-3.127942,209.97416820370913,644.0811709337531
320,William Grant & Sons Distillers Limited,Girvan,upper,South Ayrshire UA,Scotland,KA269PT,55.260701069450896,-4.83340271101049,91.09201566655014,448.7806500048041
321,Wood Group PSN Limited,Seal Sands Terminal - Central Area Transmission System (CATS),upper,Stockton-on-Tees,England,TS21UB,54.610588,-1.180091,321.0028840988973,377.48394639077014
322,Wood Group UK Limited,St Fergus Gas Terminal,upper,Aberdeenshire UA,Scotland,AB423EP,57.57063161,-1.838158246,287.4017409540849,651.5907400798674
323,XPO Supply Chain UK Limited,Alfreton,upper,Bolsover,England,DE552DT,53.1102881670373,-1.323901,308.63159254170273,243.00050494697552
324,XPO Supply Chain UK Limited,Trafford,upper,Trafford,England,M171PY,53.462356,-2.317825,243.59295451053063,276.4652090574855
325,Yara UK Limited,Pocklington,upper,East Riding,England,YO421NR,53.9239991563034,-0.800226159214417,344.5955851446806,315.09440895405487
326,A E M Limited,Ramsgate,lower,Thanet,England,CT125HE,51.346058,1.38693646381421,493.3100151570072,88.08505006508994
327,Abbey Metal Finishing Co Limited,Hinckley,lower,Hinckley & Bosworth,England,LE103BZ,52.537286,-1.411536,301.5332659948118,192.38890172532228
328,Aceo Limited,Royal Brackla,lower,Highland UA,Scotland,IV125QY,57.53748,-3.905474,164.07868589573687,654.6629413179885
329,ADI Treatments Limited,Doranda Way,lower,Sandwell,England,B714LE,52.508862,-1.97152,263.5898067158451,191.00010755293715
330,Adient Seating UK Limited,Walsall,lower,Sandwell,England,WS107DD,52.5515692207837,-2.03564682902523,259.38639475510286,194.91848331847132
331,Aesica Pharmaceuticals Limited,Cramlington/Head Office,lower,Northumberland UA,England,NE233JL,55.099660476351104,-1.62594749560062,293.561779078669,422.6373252436415
332,A-Gas (UK) Limited,Portbury West,lower,North Somerset,England,BS207XH,51.481195,-2.720989,208.63607394112876,103.13834922513388
333,AGC Chemicals Europe Limited,Hillhouse,lower,Wyre,England,FY54QD,53.883097,-3.000861,200.39812863284243,316.20296153075515
334,Agrii (UK) Limited,Micheldever,lower,Winchester,England,SO213BG,51.17789,-1.240178,310.5467737654176,73.26896980865604
335,Agrii (UK) Limited,Cirencester,lower,Gloucester,England,GL544NW,51.780654,-1.91948979956003,264.9676091977808,126.98349846040446
336,Air Liquide UK Limited,Coleshill,lower,North Warwickshire,England,B461JY,52.51584626,-1.706914409,281.50677544911207,191.04131557593428
337,Air Liquide UK Limited,Goole,lower,Selby,England,DN140LR,53.7043276448644,-1.15135974687144,321.21128802989836,295.7752792295778
338,Air Liquide UK Limited,Irlam,lower,Salford,England,M445BA,53.435903841705695,-2.42162579922433,236.62738255271032,274.3885779623897
339,Air Liquide UK Limited,Stoke-on-Trent,lower,Stoke-on-Trent,England,ST65PD,53.06825514311431,-2.21528183336145,249.01847884939696,241.10349561117437
340,Air Products (BR) Limited,"Carrington, Manchester",lower,Trafford,England,M314TG,53.4317011062788,-2.40755659709245,237.5427492904072,273.9743063884798
341,Air Products (BR) Limited,"Didcot, Hawksworth",lower,South Oxfordshire,England,OX117PL,51.619824275440095,-1.25386801732922,310.4330559275693,111.68441577199383
342,Air Products (BR) Limited,Ellesmere Port,lower,Cheshire West and Chester UA,England,CH24RA,53.2688385652733,-2.87354694676939,205.9764095894709,260.88555893934017
343,Air Products (BR) Limited,Hull,lower,East Riding,England,HU128PP,53.740829468879696,-0.236529243833719,381.43579811293745,298.3180256550663
344,Air Products (BR) Limited,Llanwern,lower,Newport UA,Wales,NP194QX,51.57039909912471,-2.90170602894758,196.52977312447388,111.50770009577991
345,Air Products (BR) Limited,Middlesbrough,lower,Stockton-on-Tees,England,TS21SD,54.5849850600734,-1.20878194751321,319.1067392396103,375.20243903415667
346,Air Products Public Limited Company,Aberdeen,lower,Aberdeenshire UA,Scotland,AB326TQ,57.14863594,-2.285353979,259.1774457674236,613.0683802258395
347,Air Products Public Limited Company,Bardon Hill,lower,NW Leicestershire,England,LE671TU,52.7041646302989,-1.33033834750157,307.3657326516165,206.998811460664
348,Air Products Public Limited Company,Stoke-on-Trent,lower,Stoke-on-Trent,England,ST15HB,53.034866365471295,-2.19640020553444,250.16536791925523,238.09004558541938
349,Airedale Chemical Co Limited,Keighley,lower,Craven,England,BD207BX,53.904131,-1.984637,267.0051747115896,315.19462889324313
350,AKW Global Warehousing Limited,Trafford,lower,Trafford,England,M171WF,53.4659245401699,-2.30357237467681,244.54852585031782,276.74573555864026
351,Akzo Nobel Packaging Coatings Limited,Birmingham,lower,Birmingham,England,B94TQ,52.48236374,-1.855784803,271.3424141596214,188.40231848582607
352,Alloga UK Limited,Amber Park Building 1,lower,Bolsover,England,DE552FT,53.105447,-1.328755,308.297702458648,242.57759490567605
353,Angus Dundee Distillers plc,Tomintoul Distillery,lower,Moray UA,Scotland,AB379AQ,57.31248902,-3.412121529,192.20888408674708,631.7390786073229
354,Argent Energy Holdings Limited,Cheshire,lower,Cheshire West and Chester UA,England,CH654LB,53.279027432021294,-2.87418969318615,205.97925291182628,261.79462350077483
355,ASCO UK Limited,Aberdeen - Sinclair,lower,Aberdeen City UA,Scotland,AB119PL,57.13854634,-2.086907386,271.10450255541963,611.6699520280545
356,ASCO UK Limited,Aberdeen - South Esplanade Terminal,lower,Aberdeen City UA,Scotland,AB119PS,57.13923633,-2.075723103,271.78120006324866,611.709848926022
357,ASCO UK Limited,Great Yarmouth,lower,Great Yarmouth,England,NR303LX,52.5918206300662,1.72743210128404,513.6609766246817,197.78692049320443
358,ASCO UK Limited,Peterhead North Base Ship Street,lower,Aberdeenshire UA,Scotland,AB421DP,57.50438,-1.775973,290.9153263895837,645.2610740033415
359,ASCO UK Limited,North Base Fuel Terminal Castle Street,lower,Aberdeenshire UA,Scotland,AB421DP,57.50438,-1.775973,290.9153263895837,645.2610740033415
360,ASCO UK Limited,Peterhead South Base,lower,Aberdeenshire UA,Scotland,AB422PF,57.49196828,-1.787125973,290.21309473646124,644.1183952530546
361,Associated British Ports,ABP Bulk Park      ,lower,North East Lincolnshire,England,DN402QW,53.628512,-0.188028,384.5924347237734,288.2428970805563
362,Associated British Ports,Cliff Quay Ipswich,lower,Ipswich,England,IP30BE,52.043746,1.163577,476.5644160099781,148.60503989475546
363,Associated British Ports,Estuary Road Kings Lynn,lower,W Norfolk & Kings Lynn,England,PE302HJ,52.76681625788049,0.394061653942811,423.50321312366253,211.5937538893195
364,AstraZeneca UK Limited,Hurdsfield Manufacturing Site,lower,Cheshire East UA,England,SK102NA,53.275492,-2.11399,256.46164831866537,259.2803374699224
365,Augean Treatment Limited,Avonmouth,lower,Bristol UA,England,BS110YA,51.521315,-2.683486,211.39369392842767,106.50346734095865
366,Avanti Gas Limited,Cibyn Industrial Estate,lower,Gwynedd UA,Wales,LL552BD,53.14026,-4.249538,113.80168026254285,255.1523011765289
367,Avanti Gas Limited,Cowdenbeath,lower,Fife UA,Scotland,KY48EP,56.091597254270894,-3.31366916812619,191.5522698118419,518.1147930640741
368,Avanti Gas Limited,Horam,lower,Wealden,England,TN210JJ,50.9256161344281,0.23527714010884,413.48147458306187,50.55115261417177
369,Avanti Gas Limited,St Austell,lower,Cornwall UA,England,PL268XG,50.369176,-4.806021,56.52653837565987,16.96103381068133
370,Avanti Gas Limited,Stanton,lower,St Edmundsbury,England,IP312UD,52.3199965090856,0.920789272019575,459.5726025569146,172.56562051677656
371,Avanti Gas Limited,Wednesbury,lower,Sandwell,England,WS100AW,52.5459723193359,-2.01961317874807,260.45236765095143,194.3863710897881
372,Avocado Research Chemicals Limited,Port of Heysham,lower,Lancaster,England,LA32XY,54.0385560077604,-2.90665167411459,207.27341079029162,329.84471566325783
373,AWE Plc,Aldermaston,lower,West Berkshire UA,England,RG74PR,51.3633574332198,-1.14120843297434,317.7647348071812,89.21064207148584
374,BAE Systems Marine Limited,Barrow-in-Furness,lower,Barrow-in-Furness,England,LA141AF,54.104296,-3.232886,186.33530939804254,336.895312969471
375,Barony Universal Products Plc,Irvine - Riverside Way,lower,North Ayrshire UA,Scotland,KA115DJ,55.603659,-4.638882,105.91516607624129,479.0626627202432
376,Barony Universal Products Plc,Irvine - Arkwright Way,lower,North Ayrshire UA,Scotland,KA114JU,55.615995,-4.641236,105.85937528271523,480.2028544597747
377,BASF Plc ,Bradford / Dealburn Road,lower,Bradford,England,BD120RG,53.74835836,-1.756628,281.50527408898836,300.7314812158834
378,Bawtry Carbon International Limited,High Street,lower,Doncaster,England,DN106QT,53.443729,-1.008532,330.20044881091894,272.2859123583735
379,Beam Suntory UK Limited,Ardmore Distillery,lower,Aberdeenshire UA,Scotland,AB544NH,57.35043902,-2.743875412,232.4500569706557,633.132562214656
380,Beam Suntory UK Limited,Laphroaig Distillery,lower,Argyll & Bute UA,Scotland,PA427DU,55.629823030374,-6.15356929101998,11.450968120647133,490.397346543426
381,Beam Suntory UK Limited,Linlithgow Bond,lower,West Lothian UA,Scotland,EH496AA,55.9764096519567,-3.58719637393699,173.95097346465988,508.53400016232945
382,Beam Suntory UK Limited,Righead Industrial Estate,lower,North Lanarkshire UA,Scotland,G716BH,55.8357379580337,-4.09313288392176,141.61912673219925,497.7217940727519
383,Becker Industrial Coatings Limited,"Goodlass Road, Speke",lower,Liverpool,England,L249HJ,53.3546033549336,-2.86974118969892,206.61204997692326,268.5106755154311
384,Belzona Polymerics Limited,Harrogate,lower,Harrogate,England,HG14DS,54.003101,-1.522394,297.5084646901186,323.16285258475955
385,Ben Nevis Distillery (Fort William) Limited,Ben Nevis Distillery,lower,Highland UA,Scotland,PH336JT,56.8080288724596,-5.11732332077894,85.89716592154457,592.4655455342827
386,BenRiach Distillery Company Limited (The),Glendronach Distillery,lower,Aberdeenshire UA,Scotland,AB546DA,57.49282967,-2.649142761,238.74339451602742,646.192809656935
387,BenRiach Distillery Company Limited (The),Glenglassaugh Distillery,lower,Aberdeenshire UA,Scotland,AB452SQ,57.677604,-2.737292489,234.30999729373562,663.7652176148813
388,BenRiach Distillery Company Limited (The),Benriach Distillery,lower,Moray UA,Scotland,IV308SJ,57.608633,-3.281876,201.6062261791104,658.9973295278837
389,Biodeg Chemical Company Limted,Liverpool,lower,Liverpool,England,L249HW,53.354144,-2.861393,207.16336309788417,268.44204605334835
390,BIP Organics Limited,Middlewich,lower,Cheshire East UA,England,CW100QF,53.186471,-2.43779,234.61159601542718,252.21309828083804
391,Bitrez Limited,Standish,lower,Wigan,England,WN60XQ,53.5939595758453,-2.649498,222.20083247553052,289.1717465424081
392,Blagden Specialty Chemicals Limited,Liverpool,lower,Liverpool,England,L249GQ,53.3560382990364,-2.872296,206.44912062464866,268.647029562781
393,BOC Limited,Brislington,lower,Bristol UA,England,BS43QH,51.448114,-2.557933,219.7871449005788,99.74386956553508
394,BOC Limited,Cambuslang Bogleshole Road,lower,South Lanarkshire UA,Scotland,G727DD,55.826282185150895,-4.18756,135.67463697058338,497.2798917268183
395,BOC Limited,Crawley,lower,Crawley,England,RH109NH,51.1343429761918,-0.168810961516975,385.2124255378206,68.57934168367365
396,BOC Limited,Hardley - Charleston Road,lower,New Forest,England,SO453NX,50.849824,-1.38588,299.70696658346054,45.15476754632664
397,BOC Limited,Motherwell,lower,North Lanarkshire UA,Scotland,ML15LF,55.8025318215852,-3.9521353486473,150.19127566968214,494.05685948844257
398,BOC Limited,Rotherham,lower,Rotherham,England,S605NT,53.4102244111717,-1.38539127944917,305.1745775819077,269.8161907921317
399,BOC Limited,Thame,lower,South Oxfordshire,England,OX93NX,51.7382749635232,-0.956858,331.10685470550237,121.62080415266564
400,BOC Limited,Wolverhampton,lower,Wolverhampton,England,WV12EP,52.5827265985621,-2.11045360397306,254.43319922765846,197.850653036724
401,Boughey Distribution Limited,Wardle,lower,Cheshire East UA,England,CW56BP,53.1151886897166,-2.59673295028167,223.74418135223647,246.3420352290923
402,BP International Limited,Prestwick Airport,lower,South Ayrshire UA,Scotland,KA92PL,55.5092734599338,-4.61051117587528,106.99577251885569,470.2917622216123
403,Brenntag UK Limited,Cambuslang,lower,South Lanarkshire UA,Scotland,G727NA,55.823297,-4.160362,137.34895785725024,496.882352262372
404,Brenntag UK Limited,Cleckheaton,lower,Bradford,England,BD194JW,53.7217162,-1.683010087,286.2735535843978,298.19862234020775
405,Brenntag UK Limited,Greenwich,lower,Greenwich,England,SE100QE,51.495339552271,0.003313124306728,397.22045551596347,99.89569216132804
406,Brenntag UK Limited,Portishead,lower,North Somerset,England,BS206QG,51.476013592668494,-2.761053,205.84314156952414,102.8207856496656
407,Brenntag UK Limited,Scunthorpe,lower,North Lincolnshire,England,DN158TZ,53.602761,-0.714047,349.8788828732236,286.2109429045099
408,Brenntag UK Limited,Sunderland,lower,Sandwell,England,NE388LE,54.9020133416996,-1.48686948659827,301.9395529177872,404.40008710788015
409,British Pipeline Agency Limited,North Walsham,lower,North Norfolk,England,NR289JR,52.816656,1.387079,490.19731162467724,217.04468366571746
410,British Sugar Plc,Wissington Sugar Factory,lower,W Norfolk & Kings Lynn,England,PE339QG,52.551453,0.4487,427.32826085948346,192.58229586116386
411,Broxburn Bottlers Limited,Broxburn - Drovers Road,lower,West Lothian UA,Scotland,EH525NN,55.9376560720602,-3.45220140816952,182.11914817538283,504.4541670842341
412,Bruichladdich Distillery Company Limited,Bruichladdich Distillery,lower,Argyll & Bute UA,Scotland,PA497UN,55.76839894691631,-6.35967534977941,0.0,504.4581828740984
413,Budget Gas Limited,Telford,lower,The Wrekin UA,England,TF74NX,52.642673,-2.426869,233.2960408088611,203.98841856064064
414,Caldic (UK) Limited,Holmewood Industrial Estate,lower,North East Derbyshire,England,S425UG,53.1898,-1.346356,307.2994125549431,250.10836995562568
415,Caligen Foam Limited,Accrington,lower,Hyndburn,England,BB52BS,53.74735,-2.355351,242.15912587492164,302.0534995627427
416,Calor Gas Limited,Blackpool,lower,Blackpool UA,England,FY43RN,53.7804314334322,-3.02740231120756,198.17423589724095,307.0913886153944
417,Calor Gas Limited,Brecon,lower,Powys UA,Wales,LD30SD,52.027520331268896,-3.213275,177.26581147565125,152.53754288364735
418,Calor Gas Limited,Cranbrook (Old Station Yard),lower,Tunbridge Wells,England,TN172SR,51.08311,0.502151,432.06680471329014,64.28161909192431
419,Calor Gas Limited,"Derby Road, Liverpool",lower,Liverpool,England,L208PF,53.432434144421,-2.99458890069257,198.6999592356578,275.8723516326859
420,Calor Gas Limited,Edmonton Calor Centre,lower,Enfield,England,N183PE,51.617737988814305,-0.047378033911702,393.72004587331645,110.5567549440093
421,Calor Gas Limited,Elland,lower,Calderdale,England,HX59JU,53.6832928361714,-1.817565,277.31544449522704,295.02733189804394
422,Calor Gas Limited,Hardley - Cadland Road,lower,New Forest,England,SO453NY,50.843972665814896,-1.38155341704536,299.99845449704117,44.6430341677642
423,Calor Gas Limited,Newbury,lower,West Berkshire UA,England,RG142AE,51.40436,-1.31426402709575,305.8343343364892,93.02950732517684
424,Calor Gas Limited,Norwich,lower,Norwich,England,NR46EQ,52.601777,1.288215,483.98255775629013,197.88546374971156
425,Calor Gas Limited,Poole,lower,Poole UA,England,BH153SS,50.73125096,-1.988981006,257.0311544085405,36.19164681842494
426,Calor Gas Limited,Reading,lower,West Berkshire UA,England,RG72AB,51.372049884153,-1.03347052219745,325.25701209186457,89.82361842744649
427,Calor Gas Limited,Sittingbourne,lower,Swale,England,ME103SR,51.3422150626449,0.746660788226105,448.8525772483232,86.9234466799403
428,Calor Gas Limited,Smethwick,lower,Sandwell,England,B662JE,52.501963,-1.9608,264.2940572969799,190.3669202057058
429,Calor Gas Limited,Stalbridge,lower,North Dorset,England,DT102RY,50.975940699563296,-2.353029,232.29356947252577,58.245432329068535
430,Calor Gas Limited,Stoke on Trent,lower,Stoke-on-Trent,England,ST62DZ,53.046175,-2.179999,251.2994514873085,239.05223499525528
431,Calor Gas Limited,Uxbridge Calor Depot,lower,Hillingdon,England,UB82JG,51.531103,-0.485384724220802,363.4158736974019,103.15068354910409
432,Calor Gas Limited,Wandsworth Calor Depot,lower,Wandsworth,England,SW181EG,51.460778145951,-0.192035,383.6869315217749,96.91129270722286
433,Calor Gas Limited,Dyce,lower,Aberdeen City UA,Scotland,AB217GB,57.195444,-2.18608,265.3278229772733,617.2052172462395
434,Calor Gas Limited,Worcester,lower,Worcester,England,WR53BX,52.177098,-2.222077,245.51171381423552,162.43700682224062
435,Cambrian Gas Limited,HQ/Factory Road,lower,Flintshire UA,Wales,CH52QJ,53.202968,-3.00566,196.8946045393454,255.47650690909495
436,Campbell Meyer & Co. Limited,Peel Park Place,lower,South Lanarkshire UA,Scotland,G745LW,55.763855,-4.219831,133.2420211846686,491.70228865336776
437,Cardiff Gas Limited,Penarth,lower,Vale of Glamorgan UA,Wales,CF642SY,51.436914421812496,-3.18928568207784,176.0359379551065,100.96496356985563
438,Carntyne Transport Company Limited,Bonhill,lower,West Dumbartonshire UA,Scotland,G839HX,55.977936,-4.579221,112.39848322180518,513.069027324595
439,Carver (Wolverhampton) Limited,Wolverhampton / Gravelly Way,lower,South Staffordshire,England,WV107GW,52.681742529846304,-2.12543650518414,253.74611616332746,206.63236407763725
440,Centec International Limited,Middlewich,lower,Cheshire East UA,England,CW100JG,53.188876367622306,-2.43859302270677,234.56725058730888,252.42931343170767
441,Certas Energy UK Limited,Aberdeen Point Law,lower,Aberdeen City UA,Scotland,AB115QW,57.14123799,-2.078238799,271.63629708261357,611.902189667132
442,Certas Energy UK Limited,Inverness,lower,Highland UA,Scotland,IV11SX,57.487113,-4.22834,144.50910385683298,651.3183331931332
443,Certas Energy UK Limited,Lerwick,lower,Shetland,Scotland,ZE10LZ,60.1589443965059,-1.14622026690037,333.5748325803337,896.7945430631912
444,Chemring Countermeasures Limited,Salisbury,lower,Wiltshire UA,England,SP46AS,51.1303897617596,-1.79696222722068,271.6189139101154,70.18591514888794
445,Chemring Defence UK Limited,Draycott,lower,Erewash,England,DE723QJ,52.879351070272094,-1.3360689867412,307.34147588643077,222.51815459010777
446,Chestnut Trading Limited,Brookenby Business Park,lower,West Lindsey,England,LN86HF,53.444477988706,-0.195403114709163,384.0499904815089,271.7870331029185
447,Chivas Brothers Limited,Glenburgie Distillery,lower,Moray UA,Scotland,IV362QX,57.6220659230784,-3.51766196677094,187.66326677363244,661.0892227922432
448,Chivas Brothers Limited,Glentauchers Distillery,lower,Moray UA,Scotland,AB556YL,57.53434205,-3.050291574,215.00893819712323,651.2727146810753
449,Chivas Brothers Limited,Kilmalid Distillery,lower,West Dumbartonshire UA,Scotland,G822SS,55.963721,-4.569125,112.92025087439612,511.71314162968883
450,Chivas Brothers Limited,Tormore Distillery,lower,Highland UA,Scotland,PH263LR,57.396968106579294,-3.41337328578217,192.60478580391532,639.6392185970312
451,Chivas Brothers Limited,Towers Road Warehouse,lower,North Lanarkshire UA,Scotland,ML68NA,55.8677351916268,-3.9428120100197,151.1850720532173,500.0016145618083
452,Christeyns Food Hygiene Limited,Winwick Quay,lower,Warrington UA,England,WA28RE,53.4190762093157,-2.60071,224.70783501464783,273.4071569178909
453,Clariant Oil Services UK Limited,Aberdeen,lower,Aberdeen City UA,Scotland,AB210GS,57.20664,-2.217372,263.4845906631755,618.3233216768658
454,CLH Pipeline System (CLH-PS) Limited,Inverness PSD,lower,Highland UA,Scotland,IV11SU,57.4908752582421,-4.22950345199854,144.4657766826236,651.6752846437121
455,CLH Pipeline System (CLH-PS) Limited,Saffron Walden PSD,lower,Uttlesford,England,CB102NF,52.026065,0.26237816603192,414.94257068374293,146.28812212634193
456,CLH Pipeline System (CLH-PS) Limited,Purton PSD,lower,Swindon UA,England,SN54JS,51.589011,-1.843094,269.68254816400054,110.09974829241628
457,CLH Pipeline System (CLH-PS) Limited,Sandy PSD,lower,Bedford,England,SG192EB,52.1225199325636,-0.249474657502539,379.95928904475824,154.74430343857102
458,CLH Pipeline System (CLH-PS) Limited,Berwick Wood PSD,lower,South Gloucs UA,England,BS107RS,51.526044868097294,-2.64186982210334,214.2889073155359,106.78100571744744
459,Coryton Advanced Fuels Limited,Coryton,lower,Thurrock UA,England,SS179LN,51.512348786700095,0.511381868606257,432.3791270691987,101.53386847522142
460,Covance CRS Limited,Alconbury,lower,Huntingdon,England,PE284HS,52.3522067688514,-0.256917657245898,379.54168991936496,174.93710375751652
461,CRC Industries UK Limited,Bridgwater,lower,Sedgemoor,England,TA64DD,51.136972,-3.00110402651842,187.6984471453015,74.27214979240807
462,Croda Europe Limited,Thorne Distribution Centre,lower,Doncaster,England,DN85TZ,53.614667,-0.977444,332.5198114942343,287.5330205638652
463,Croda Europe Limited,Goole 36 Business Development,lower,East Riding,England,DN148GA,53.697004,-0.904222,337.4654247016619,294.8272566887222
464,Cumbrian Storage Limited,Port of Workington,lower,Allerdale,England,CA142JH,54.6486583166416,-3.5642783656253,167.82709267225815,387.28352346773363
465,Deltech Europe Limited,Haverhill,lower,St Edmundsbury,England,CB98PH,52.07338697042471,0.437376931382829,426.883833026144,150.5104084114564
466,DHL Supply Chain Limited,Stoke on Trent / Sainsbury's Distribution Centre,lower,Stoke-on-Trent,England,ST44EX,52.9849156842004,-2.17795643326011,251.22910883694757,233.60977689965375
467,Diageo Scotland Limited,Benrinnes Distillery,lower,Moray UA,Scotland,AB389NN,57.444578,-3.23416,203.57569403621017,643.470543785812
468,Diageo Scotland Limited,Cameronbridge,lower,Fife UA,Scotland,KY85RL,56.1897141540375,-3.0562353007146,207.9797527207192,526.274507336132
469,Diageo Scotland Limited,Carsebridge Bond,lower,Clackmannan UA,Scotland,FK103LT,56.1214041867098,-3.77732195255759,163.02735075191654,522.6386266393683
470,Diageo Scotland Limited,Dufftown Distillery,lower,Moray UA,Scotland,AB554BR,57.438353,-3.128620912,209.84912257505093,642.537542813418
471,Diageo Scotland Limited,Grange Lane,lower,Falkirk UA,Scotland,FK38EG,56.02185943344,-3.72897339625653,165.4204428647514,513.2776639570607
472,Diageo Scotland Limited,Inchgower Distillery,lower,Moray UA,Scotland,AB565AB,57.66181618,-2.963885121,220.7781360363604,662.9537955359106
473,Diageo Scotland Limited,Shieldhall Packing Operations,lower,Glasgow UA,Scotland,G514SA,55.870536,-4.362634,125.07995423121088,502.15546967716455
474,Diversey UK Production Limited - Part of Sealedair,"Alfreton, Cotes Park Industrial Estate",lower,Amber Valley,England,DE554PA,53.089972,-1.368983,305.5801430843716,241.26519348586635
475,DMW Logistics Limited,Sutton in Ashfield,lower,Ashfield,England,NG175FB,53.117268,-1.247619,313.73547549466707,243.5068718887901
476,Dr Reddy's Laboratories (EU) Limited,Mirfield,lower,Kirklees,England,WF148HZ,53.671003,-1.67832,286.4489064172219,293.6470633596359
477,Dracon Trading Limited,Hemswell Cliff,lower,West Lindsey,England,DN215TL,53.399728,-0.574941,358.874524405833,267.9602687160286
478,DSM Nutritional Products (UK) Limtied,Heanor,lower,Amber Valley,England,DE757SG,53.0076028163715,-1.367621,305.49637622712976,233.94568554991838
479,EDF Energy (Thermal Generation) Limited,West Burton Power Station,lower,Bassetlaw,England,DN229BL,53.36319,-0.80738,343.419557414094,264.8855458407829
480,EDF Energy Nuclear Generation Limited,Hartlepool Power Station,lower,Hartlepool,England,TS252BZ,54.6354788555604,-1.18109303665402,320.9848865747647,379.7415000255046
481,EDF Energy Nuclear Generation Limited,Heysham 1 & 2 Power Station,lower,Lancaster,England,LA32XQ,54.071371,-2.866549,210.0364514595331,332.66319301001704
482,EDF Energy Nuclear Generation Limited,Hinkley Point B Power Station,lower,West Somerset,England,TA51UD,51.2070801385854,-3.13163372292,178.9361452808098,80.82331966107449
483,EDF Energy Nuclear Generation Limited,Hunterston B Power Station ,lower,North Ayrshire UA,Scotland,KA239QJ,55.6338066242603,-4.78871848042982,96.76589637965236,482.5930917491387
484,EDF Energy Nuclear Generation Limited,Sizewell B Power Station,lower,Suffolk Coastal,England,IP164UR,52.214922,1.619863,507.336478720379,164.38228609743737
485,EDF Energy Nuclear Generation Limited,Torness Power Station,lower,East Lothian UA,Scotland,EH421QS,55.9615091417204,-2.40176007372583,247.5461331545339,503.3092514749119
486,Edrington Group Limited (The),Glasgow - Buchley Warehouse,lower,East Dumbartonshire UA,Scotland,G643QH,55.9230558069316,-4.24666190744729,132.6528386383506,506.43475719073876
487,Edrington Group Limited (The),Glasgow - Drumchapel,lower,Glasgow UA,Scotland,G156RW,55.906225,-4.372501,124.71666364446315,505.4784386674587
488,Edrington Group Limited (The),Glenrothes Distillery,lower,Moray UA,Scotland,AB387AA,57.526674,-3.210314,205.431366154974,651.0760635451797
489,Edrington Group Limited (The),Highland Park Distillery,lower,Orkney,Scotland,KW151SU,58.967119,-2.952097,227.83903791540914,786.2596177612995
490,Edrington Group Limited (The),Parkmore Warehouse,lower,Moray UA,Scotland,AB554DL,57.456134,-3.119198,210.50288885755566,644.170881020566
491,Energas Limited,Derby,lower,Derby City UA,England,DE221EB,52.9426388290513,-1.472631,298.3244184842325,228.35452820179034
492,Energas Limited,Grimsby,lower,North East Lincolnshire,England,DN311SJ,53.5733360761066,-0.090584346027023,391.01010282749655,283.28897102852034
493,EnerSys Limited,Newport,lower,Newport UA,Wales,NP194XJ,51.568996,-2.972882,191.6106775680925,111.63772152197907
494,Eni UK Limited (t/a Eni Liverpool Bay Operating Company Limited),Point of Ayr Terminal,lower,Flintshire UA,Wales,CH89RD,53.34922,-3.321904,176.61900142576937,269.6518813651087
495,Esso Petroleum Company Limited,ASIG - Gatwick Fuel Farm,lower,Crawley,England,RH60JE,51.159367,-0.185811,384.0332906877308,70.74992543928602
496,Esso Petroleum Company Limited,Hythe Terminal Southampton,lower,New Forest,England,SO453NR,50.8437092432868,-1.38959594953564,299.4333841019969,44.63398194565616
497,Evergreen Garden Care UK Limited,Doncaster,lower,Doncaster,England,DN33FG,53.537133,-1.037405,328.4396621167014,280.66654900817457
498,Evonik Chemicals Limited,"Clayton, Manchester",lower,Manchester,England,M114SR,53.481728884495695,-2.18327145257433,252.55947000691464,277.84517886081903
499,Evonik Goldschmidt UK Limited,Milton Keynes,lower,Milton Keynes UA,England,MK100AF,52.0380545744783,-0.685079899777892,350.1325964748569,147.57818259422447
500,Explosive Developments Limited,Stapleton,lower,Selby,England,WF83HX,53.663658694188,-1.2647577665667,313.6684257954687,292.2897273399044
501,Exwold Technology Limited,Billingham,lower,Stockton-on-Tees,England,TS231YJ,54.571605669050705,-1.32010324956681,311.90735953737624,374.14869527833116
502,F2 Chemicals Limited,"F2 Chemicals, Preston",lower,Fylde,England,PR40RZ,53.774757995257104,-2.79602751593963,213.3317909787589,305.81084473721694
503,Fisher Scientific UK Limited,Loughborough,lower,Charnwood,England,LE115RG,52.7847741279459,-1.22384452329114,314.69149908548025,213.9716005238679
504,Flogas Britain Limited,Defford Mill,lower,Malvern Hills,England,WR89DF,52.0843098961122,-2.171005,248.68307198848137,154.16455733956263
505,Flogas Britain Limited,Blaydon-on-Tyne,lower,Gateshead,England,NE214SQ,54.974252,-1.736251,286.2010083362184,411.4203873802476
506,Flogas Britain Limited,Buckfastleigh,lower,Teignbridge,England,TQ110EA,50.490207,-3.77722,129.97146950589075,21.85226895950791
507,Flogas Britain Limited,Carlisle,lower,Carlisle,England,CA25RT,54.8988350283342,-2.950581,208.41574876106162,407.7341809135778
508,Flogas Britain Limited,Conwy,lower,Conwy UA,Wales,LL328HH,53.287727,-3.854749,140.95155365782892,266.3942529796882
509,Flogas Britain Limited,Hardley - Hythe - Flogas LPG Depot,lower,New Forest,England,SO453NX,50.849824,-1.38588,299.70696658346054,45.15476754632664
510,Flogas Britain Limited,Launceston,lower,Cornwall UA,England,PL157ED,50.6276313738708,-4.37898132404245,88.40990122410238,36.646364216720485
511,Flogas Britain Limited,Leeds,lower,Leeds,England,LS90NP,53.784234,-1.504089,298.18824639548626,303.47566311516584
512,Flogas Britain Limited,Liverpool,lower,Knowsley,England,L349EU,53.463017855747694,-2.865825,207.3555660402924,278.16474943646153
513,Flogas Britain Limited,Ludham (Great Yarmouth),lower,North Norfolk,England,NR295LY,52.72645127590209,1.55667797370528,501.8079973414304,209.35396292338237
514,Flogas Britain Limited,Newport,lower,Newport UA,Wales,NP194PP,51.5671380017759,-2.97552626489103,191.4197627319397,111.4855829618391
515,Flogas Britain Limited,Peterborough,lower,Peterborough UA,England,PE15YD,52.582282,-0.206505,383.03873463449895,195.21072054163642
516,Flogas Britain Limited,Ridham,lower,Swale,England,ME98SR,51.380501,0.758999,449.66546460949576,90.25971358438483
517,Flogas Britain Limited,Skegness,lower,East Lindsey,England,LN139JS,53.2551626158126,0.26898821123458,414.88483407433176,254.9179377314108
518,Flogas Britain Limited,Stoke-on-Trent,lower,Stoke-on-Trent,England,ST48HX,52.967442,-2.165631,251.99498796175732,232.02836676186962
519,Flogas Britain Limited,Witney,lower,West Oxfordshire,England,OX290DN,51.792693,-1.502165389155,293.6914769353109,127.1778380556816
520,Flogas Britain Limited trading as MacGas,Duns,lower,Borders UA,Scotland,TD113JL,55.7256216488268,-2.27653501210806,254.47162907185253,481.30317493450593
521,Flogas Britain Limited trading as MacGas,Evanton,lower,Highland UA,Scotland,IV169XJ,57.67579981116489,-4.30427959265646,141.31235169859787,669.3172277001063
522,Flogas Britain Limited trading as MacGas,Grangemouth,lower,Falkirk UA,Scotland,FK38UB,56.023393,-3.716334,166.21341690000673,513.3677779087643
523,Flogas Britain Limited trading as MacGas,Insch,lower,Aberdeenshire UA,Scotland,AB526UT,57.38244933,-2.553034553,244.01980753604056,635.5980668417496
524,Flogas Britain Limited trading as MacGas,Paisley,lower,Renfrewshire UA,Scotland,PA34AT,55.853437,-4.42151453261321,121.29600749197971,500.8677653753898
525,Flogas Britain Limited trading as MacGas,Perth,lower,Perth & Kinross UA,Scotland,PH13TR,56.421105,-3.472683,183.5510878314662,549.1095906294099
526,Frontier Agriculture Limited,Cranswick,lower,East Riding,England,YO259PF,53.951575,-0.447752,367.69285610350045,317.3217150744431
527,Frontier Agriculture Limited,Diss Sandy Lane,lower,South Norfolk,England,IP224HY,52.3760705635028,1.12655720226734,473.4589388475696,177.75111910303576
528,Frontier Agriculture Limited,Sandy,lower,Central Bedfordshire UA,England,SG192UB,52.138234411436706,-0.299681838221342,376.5388535959578,156.14010200977782
529,Frontier Agriculture Limited,Topcliffe,lower,Hambleton,England,YO73SD,54.18801447507511,-1.39147879739189,306.46594582676477,339.59508544006667
530,Frontier Agriculture Limited,Drem Airfield,lower,East Lothian UA,Scotland,EH395AW,56.0228515231582,-2.79115696717776,223.60982182534104,510.0548011789683
531,Fuchs Lubricants (UK) Plc,Century Street,lower,Stoke-on-Trent,England,ST15HU,53.02687,-2.183154,251.02336306808974,237.34631974399645
532,Fujifilm Speciality Ink Systems Limited,Broadstairs,lower,Thanet,England,CT102LE,51.35392,1.410702,494.94332718778287,88.80787739740845
533,Future Industrial Services Limited,Berwick,lower,Northumberland UA,England,TD152XF,55.7617005154199,-2.024148,270.3821187780737,484.0239458116034
534,Gamebore Cartridge Company Limited,"Hunsdale Farm, South Cave",lower,East Riding,England,HU152DB,53.758558,-0.594237,357.92829709676687,300.07824376071176
535,Gasrec Limited,Daventry,lower,Daventry,England,NN67GY,52.354162,-1.16836,317.6468345661322,175.87913763393817
536,GASSCO AS UK Branch,Langeled Receiving Facility (LRF),lower,East Riding,England,HU120TG,53.651988,0.114769,404.55481952437475,290.33232029474675
537,George J Goff Limited,Wymondham,lower,South Norfolk,England,NR189QY,52.562384791312304,1.1432820292904,474.2662195038731,194.19960953401596
538,Gillette UK Limited,Reading Gillette Factory,lower,Reading,England,RG20QE,51.4288888025006,-0.972275262912099,329.5880220872246,94.687956455326
539,GL Industrial Services UK Limited,Gilsland,lower,Carlisle,England,CA87AU,55.026588,-2.601743,231.22204710220248,418.2730328970447
540,Glasson Grain Limited,"East Quay, Glasson Dock",lower,Lancaster,England,LA20DB,53.999305,-2.850345,210.76986757377318,326.1326344169902
541,Glasson Grain Limited,"Winmarleigh, Preston",lower,Wyre,England,PR30JU,53.932582,-2.79453117305445,214.1209117472483,319.9604261600034
542,Glaxo Operations UK Limited,Irvine,lower,North Ayrshire UA,Scotland,KA115AP,55.596255300489,-4.62825670761818,106.52560764438897,478.3316829297487
543,Glaxo Operations UK Limited,Montrose,lower,Angus UA,Scotland,DD108EA,56.704849,-2.459235,246.92379121553645,572.1893473878054
544,Glen Turner Distillery Limited,Glen Moray Distillery,lower,Moray UA,Scotland,IV301YE,57.6435049042722,-3.3451086854365,198.0370271471451,662.4843481179978
545,Glenallachie Distillers Company Limited (The),Glenallachie Distillery,lower,Moray UA,Scotland,AB389LR,57.45585403,-3.227523009,204.0316957565507,644.5033755353611
546,Glenmorangie Company Limited (The),Brora,lower,Highland UA,Scotland,KW96NA,58.0065293376663,-3.86127637557204,169.6816059370408,698.5044005647196
547,Glenmorangie Company Limited (The),Glenmorangie Distillery,lower,Highland UA,Scotland,IV191PZ,57.824089,-4.076107,155.8337746100198,682.2358858898156
548,Gower Chemicals Limited,Swansea,lower,Neath & Port Talbot UA,Wales,SA18PT,51.6222104980023,-3.88757805680253,128.81920349698083,120.04661936281082
549,Great Bear Distribution Limited,"Chadderton, Oldham",lower,Oldham,England,OL99XA,53.532068,-2.169021,253.6720512606181,282.30610199563534
550,Great Bear Distribution Limited,Flintshire,lower,Flintshire UA,Wales,CH52LL,53.23798,-3.031009,195.37348723922554,258.6792509529273
551,Grissan Carnside Limited,Carnoustie,lower,Angus UA,Scotland,DD76LP,56.5259764310228,-2.66794690128232,233.42357556419674,556.1693520381723
552,Grissan Carrick Limited,Grissan Seaside Site,lower,South Ayrshire UA,Scotland,KA269PT,55.260701069450896,-4.83340271101049,91.09201566655014,448.7806500048041
553,Grissan Carrick Limited,Grissan Ladywell Site,lower,South Ayrshire UA,Scotland,KA269PL,55.263191,-4.832633009548,91.15978091898796,449.0032524618655
554,Grissan Portside Limited,Portgordon Maltings,lower,Aberdeenshire UA,Scotland,AB565BU,57.65929539,-3.030788,216.79168256934227,662.9253835740583
555,Grissan Riverside Limited,Dufftown,lower,Aberdeenshire UA,Scotland,AB554DH,57.454871,-3.127942,209.97416820370913,644.0811709337531
556,Grotech Production Limited,Goole,lower,East Riding,England,DN146ET,53.6977882502472,-0.88934,338.44613036449596,294.8821925998327
557,GS Yuasa Battery Manufacturing UK Limited,Rassau Industrial Estate,lower,Blaenau Gwent UA,Wales,NP235SD,51.802589318203694,-3.23382438303743,174.75160460404942,132.96172654301563
558,Guardian Industries UK Limited,Goole,lower,East Riding,England,DN148GA,53.697004,-0.904222,337.4654247016619,294.8272566887222
559,H L Hutchinson Limited,Lincoln,lower,North Kesteven,England,LN43PU,53.058603,-0.395880261769578,370.53545522844485,237.47606669924426
560,H L Hutchinson Limited,Wisbech - Weasenham Road,lower,Fenland,England,PE132RN,52.654411,0.156814,407.5686880339244,201.57311737713326
561,H W Coates Limited,"Mid Point 18, Middlewich",lower,Cheshire East UA,England,CW100HS,53.193959,-2.435487,234.79323271113972,252.87259822611986
562,H W Coates Limited,"Roman Way, Rugby",lower,Rugby,England,CV211DB,52.3894908027038,-1.2629,311.29612008135877,179.1258373213177
563,H W Coates Limited,"Rugby, Cosford Lane",lower,Rugby,England,CV211QN,52.3971519106308,-1.26750610344551,310.99854896744705,179.80744611906903
564,HBS Fuels and Gas Supplies Limited,Chilbolton,lower,Test Valley,England,SO206BL,51.1397412048328,-1.42036477359495,297.90769842621984,70.25758200146629
565,Heathrow Hydrant Operating Company Limited,Sandringham Road Tank Farm - Heathrow Airport,lower,Hillingdon,England,TW63SH,51.4623780454758,-0.475899669402897,364.0222903583819,97.1650700352734
566,Henkel UK Operations Limited,St Neots,lower,Cambridge,England,PE191QL,52.223103,-0.253925,379.6946141271237,163.57964827550222
567,Henty Oil Limited,Huskisson Dock,lower,Liverpool,England,L30AT,53.429748,-3.000968,198.26538490933106,275.6548944475676
568,HFC Prestige Manufacturing Limited,Bournemouth,lower,Poole UA,England,BH118PL,50.752596,-1.925314,261.5712818062603,37.875352554185156
569,Highland Fuels Limited,Kirkwall,lower,Orkney,Scotland,KW151SD,58.96230225965991,-2.97185509367677,226.68413874572968,785.8598347039015
570,Highland Fuels Limited,Montrose,lower,Angus UA,Scotland,DD109SL,56.701066526773,-2.46906939081974,246.3089037296287,571.8639374825434
571,Hingley and Callow (Oils) Limited,Droitwich,lower,Wyre Forest,England,WR90NR,52.334961,-2.18408167102366,248.6295867149596,176.2078760582076
572,Hook 2 Sisters Limited,Lawn Farm,lower,North Norfolk,England,NR242JA,52.8548232295014,1.072084,468.97044872633177,219.97192081932235
573,Hook 2 Sisters Limited,Breckles Gate Farm - Brookside Farm,lower,Breckland,England,NR171ER,52.511268,0.870231,455.880698366838,189.36425050993603
574,Hook 2 Sisters Limited,Beck Farm,lower,Broadland,England,NR104BZ,52.72492,1.210084,478.4773681153735,208.65501533772886
575,Hook 2 Sisters Limited,Langham Airfield,lower,North Norfolk,England,NR257BP,52.9360190248945,0.972351089520572,462.1528975420737,227.05201787944952
576,Hook 2 Sisters Limited,Glebe Farm,lower,South Norfolk,England,NR161AY,52.549871370667105,1.16018,475.4305765754152,193.11807077861204
577,Hook 2 Sisters Limited,Locks Farm Bungalow,lower,Broadland,England,NR104QE,52.738973082842,1.19419597429798,477.3817175202593,209.87585726459474
578,Hook 2 Sisters Limited,North Pickenham Airfield,lower,Breckland,England,PE378LL,52.628647,0.740159,446.9452117077804,199.60418544115055
579,Hook 2 Sisters Limited,Old Wendling Airfield,lower,Breckland,England,NR192RG,52.705703,0.858908,454.8570230329503,206.52808606861254
580,Hook 2 Sisters Limited,Water Tower Site,lower,Breckland,England,NR204HZ,52.7527805927149,0.869594367874433,455.51370239132217,210.70422066320089
581,Hoover Ferguson UK Limited,Marywell,lower,Aberdeenshire UA,Scotland,AB124SB,57.084369,-2.109746,269.5412186495247,606.6651049604261
582,Hull Cartridge Company Limited,Faldingworth,lower,Lincolnshire County Council,England,LN83SQ,53.346428162079505,-0.406743,369.9914705419555,263.108485775022
583,Huntsman Corporation UK Limited,Llanelli,lower,Carmarthenshire UA,Wales,SA149TE,51.6690919802902,-4.09110895368829,115.09420787510663,125.10168126384997
584,Ian MacLeod Distillers Limited,Tamdhu Distillery,lower,Moray UA,Scotland,AB387RP,57.458151,-3.34826,196.83400774424103,645.1325290905575
585,Ibstock Brick Limited,West Hoathly Brickworks,lower,Mid Sussex,England,RH194PB,51.07936820610529,-0.042819743371795,393.99981769292066,63.80531392146713
586,IKO Insulations UK Limited,Alconbury,lower,Huntingdon,England,PE284WX,52.379569,-0.223194,381.8415163396311,177.3369572758652
587,Industrial Chemicals Limited,Selby,lower,Selby,England,YO88AE,53.77708213527529,-1.06357893224152,327.10920994100513,302.18578503912886
588,Ineos Infrastructure (Grangemouth) Limited,Grangemouth,lower,Falkirk UA,Scotland,FK39XH,56.0194822879994,-3.72482399505196,165.6635193245435,513.0421758648954
589,Interconnector (UK) Limited,Bacton North Sea Gas Terminal,lower,North Norfolk,England,NR120JD,52.8557966810764,1.45996181899215,495.00534677929323,220.63359094973794
590,IQE (Europe) Limited,Cypress Drive,lower,Cardiff UA,Wales,CF30EG,51.530505,-3.09299442450193,183.13980550808196,108.72996645087505
591,IQE Silicon Compounds Limited,Newport,lower,Newport UA,Wales,NP108BE,51.553886738976495,-3.040713,186.8591441047695,110.56953043184922
592,Isle of Wight Fuels Limited,Cowes Terminal,lower,Isle of Wight UA,England,PO326HF,50.748987042014306,-1.28762266959396,306.40784175359875,36.307005337308965
593,Isothane Limited,"Isothane Ltd, Accrington",lower,Hyndburn,England,BB56NT,53.76637,-2.355087,242.246562749718,303.7570670337468
594,J & G Grant,Banffshire,lower,Moray UA,Scotland,AB379BD,57.42675467,-3.318208,198.45816621867382,642.0904602060573
595,J and W Whewell Limited,Newbridge Chemical Works,lower,Bury,England,M262GL,53.5715298841074,-2.30339261944522,244.93988977613228,286.1794227204855
596,J T Grosvenor Limited,Huddersfield,lower,Kirklees,England,HD75QE,53.624115477693906,-1.86530949748591,274.0003384465103,289.8311378872427
597,J.P.E. (Holdings) Limited,Walsall,lower,Walsall,England,WS32XN,52.612758713618895,-2.011151468119,261.2311802262309,200.2605582647634
598,James Briggs Limited,Salmon Fields,lower,Oldham,England,OL26HZ,53.5604085361632,-2.105351048874,257.97026812375077,284.6821892475091
599,John Fergus & Co Limited,InchDairnie Distillery,lower,Fife UA,Scotland,KY62RX,56.181863,-3.209036,198.4989139751257,526.0669666341105
600,John H Whitaker Tankers Limited,Mill Bay Docks - Plymouth,lower,Plymouth UA,England,PL13EF,50.367788261801905,-4.15441326765881,102.59134960531662,13.23245202916678
601,John Hogg Technical Solutions Limited,Trafford Park,lower,Trafford,England,M171PB,53.471188,-2.319308,243.5267943088599,277.2576420258747
602,John K Philips Group Limited,Haydock,lower,St Helens,England,WA119SZ,53.47537,-2.653952,221.4161642156606,278.5918724895114
603,Johnston Oils Limited,Bathgate,lower,West Lothian UA,Scotland,EH482HT,55.884413,-3.6519,169.39358426508184,500.33161679826435
604,KDC/One Swallowfield Limited,Lowmoor Warehouse,lower,Taunton Deane,England,TA210AZ,50.990683773631,-3.242285,170.18049993399887,62.55592129351908
605,KDC/One Swallowfield Limited,Wellington Factory,lower,Taunton Deane,England,TA218NL,50.983716676759904,-3.23882504944193,170.38827005527187,61.94124297947019
606,Kilco (International) Limited,Lockerbie,lower,Dumfries & Galloway UA,Scotland,DG112SD,55.131595,-3.361068,183.4524748321177,430.3476054284665
607,L.E.C.(L'pool) Limited,Liverpool,lower,Liverpool,England,L154LH,53.401708906569,-2.93465571150332,202.52456239572717,272.92717932169126
608,Lionel Hitchen (Essential Oils) Limited,Virginia Works,lower,Test Valley,England,SP104JX,51.218393,-1.47899799621019,293.9942555608748,77.17263845661046
609,Local Fuel Plc,Shoreham Oil Terminal,lower,Adur,England,BN411EL,50.8304977150806,-0.209809642628428,382.2556575153332,42.33883178141059
610,Loch Lomond Distillers Limited,Glen Catrine Bottling Plant,lower,East Ayrshire UA,Scotland,KA56SR,55.5048600410078,-4.32377704556578,124.96510473292716,468.48220762180244
611,Loch Lomond Distillers Limited,Loch Lomond Distillery,lower,West Dumbartonshire UA,Scotland,G830TL,55.993570868985,-4.57683065589664,112.66171399312441,514.4936172506264
612,Loch Lomond Distillers Limited,Hurlford Maturation Site,lower,East Ayrshire UA,Scotland,KA15JL,55.5910421082346,-4.45220569564815,117.51460583841958,476.97929479921095
613,L'Oreal Consumer Products,Trafford Park,lower,Trafford,England,M171ED,53.461418,-2.308601,244.1997099323735,276.35682908796525
614,Lyalvale Express Limited,Lichfield,lower,Lichfield,England,WS138XA,52.6714716956122,-1.74299404944785,279.48459060099253,204.85443129525083
615,M L Operations Limited,Swadlincote,lower,South Derbyshire,England,DE118ED,52.768918,-1.546956,292.9301215917342,213.09353611153483
616,MacDonald & Muir Limited,Balmuchy,lower,Highland UA,Scotland,IV201TN,57.7929,-3.897521,166.18340278293056,678.572525534833
617,Macfarlan Smith Limited,Edinburgh,lower,Edinburgh UA,Scotland,EH112QA,55.9392711839436,-3.23761596280187,195.4690892172831,503.8229497303014
618,Magellan Aerospace (UK) Limited,Bournemouth,lower,Bournemouth UA,England,BH118QN,50.75270406,-1.928403965,261.3543396712871,37.891961581356554
619,Martin-Baker Aircraft Co Limited,Chalgrove,lower,South Oxfordshire,England,OX447RJ,51.671621,-1.070434,323.17879930000333,115.94333888143046
620,Maxam UK Limited,Faldingworth,lower,Lincolnshire County Council,England,LN83SQ,53.346428162079505,-0.406743,369.9914705419555,263.108485775022
621,MBDA (UK) Limited,Henlow,lower,Central Bedfordshire UA,England,SG166EB,52.014109956268,-0.31166,375.6621719116305,145.25720705924505
622,Mersey Docks and Harbour Company (The),West Seaforth Docks,lower,Sefton,England,L211LA,53.467139,-3.020377,197.15728369417357,279.0577512456571
623,Metapic Limited,Chesterfield,lower,Chesterfield,England,S419BG,53.259350065232,-1.42189888213974,302.4216075612238,256.422569188966
624,Miswa Chemicals Limited,Northampton ,lower,Northampton,England,NN47PW,52.2184643720074,-0.861787,338.28507268093495,163.57515807662503
625,Mole Valley Forage Services Limited,Newport,lower,Newport UA,Wales,NP202NQ,51.565184,-2.99525,190.04944553479447,111.38661920310324
626,Monarch Chemicals Limited,Sheerness,lower,Swale,England,ME121LZ,51.433660595206305,0.750691297269545,449.02841422502013,94.87180468931774
627,MP Storage and Blending Limited,Middlesbrough,lower,Middlesbrough UA,England,TS38AS,54.5786868038246,-1.20218950647652,319.5194671996027,374.62289455393557
628,Multisol Limited,Irlam,lower,Salford,England,M445EG,53.435522,-2.423142,236.52559547404138,274.35875095190477
629,Nalco Manufacturing Limited,Aberdeen,lower,Aberdeen City UA,Scotland,AB123JZ,57.118666,-2.073567,271.8416910799012,609.7852937807552
630,Nammo (U.K.) Limited,Westcott,lower,Wycombe,England,HP180XB,51.843248,-0.97316,330.14026406414587,130.81011150893755
631,Newport Wafer Fab Limited,Newport,lower,Newport UA,Wales,NP108YJ,51.565313,-3.02314,188.12489987507723,111.4990415960815
632,NNB Generation Company (HPC) Limited,Hinkley Point C,lower,West Somerset,England,TA51UD,51.2070801385854,-3.13163372292,178.9361452808098,80.82331966107449
633,NorSea Group (UK) Limited,Peterhead,lower,Aberdeenshire UA,Scotland,AB421DX,57.50311809,-1.778133671,290.78264243440907,645.146785702656
634,North British Distillery Company Limited (The),Livingston,lower,West Lothian UA,Scotland,EH545DL,55.91566,-3.511829,178.2883175767768,502.65756657013935
635,North British Distillery Company Limited (The),The Grain Distillery,lower,Edinburgh UA,Scotland,EH112PX,55.9395276981182,-3.23623128870958,195.5565190790351,503.841672698054
636,Notedome Limited,Coventry,lower,Coventry,England,CV32RT,52.392831142297695,-1.444244,299.0007530286874,179.7106866637091
637,Novagas (LPG) Limited,Ashford,lower,Ashford,England,TN262PJ,51.0870889792114,0.866426918246806,457.505074808463,64.9297234601986
638,Nu-Pro Limited,Thrupp,lower,Stroud,England,GL52BA,51.72918213575289,-2.20382989613565,245.2467222896803,123.19552409087464
639,NW Trading (Humber) Limited,Hull - Euro Terminal,lower,Hull City UA,England,HU91TA,53.745616,-0.29071,377.87481695818207,298.76359766291125
640,NW Trading Limited,Caldaire Terminal,lower,East Riding,England,DN145TB,53.695121,-0.886334,338.6403012799312,294.640139721339
641,Oakmere Technical Services Limited,Tarvin,lower,Cheshire West and Chester UA,England,CH38JH,53.198859,-2.759581,213.2460287434479,254.2868308458401
642,O-I Manufacturing UK Limited,Harlow Factory,lower,Harlow,England,CM202DB,51.785904,0.114365,404.8577299201991,125.2383126893451
643,Olleco,Aston Clinton CHP Plant,lower,Aylesbury Vale,England,HP225WJ,51.8133429441894,-0.727809,346.9602856375088,127.9459212084721
644,OMYA UK Limited,Melton,lower,Hull City UA,England,HU143LJ,53.718319,-0.536037,361.72026541649865,296.43286576001174
645,OQEMA Limited,Cricklade,lower,Wiltshire UA,England,SN66HQ,51.628009,-1.884018,266.96854109398174,113.58864376875908
646,OQEMA London Limited ,Denaby Lane Industrial Estate,lower,Doncaster,England,DN124LQ,53.4896036672702,-1.25868210794819,313.72653972703796,276.7114187915481
647,Orica UK Limited,Culcheth,lower,Warrington UA,England,WA34BE,53.46573383406751,-2.53664229916833,229.1336135209896,277.3801772110228
648,Orica UK Limited,Fife,lower,Fife UA,Scotland,KA203LN,55.625959,-4.726392,100.60513547820602,481.55081146269777
649,Origin UK Operations Limited,Cumbria,lower,Allerdale,England,CA74PH,54.8746700503374,-3.35170897997685,182.67814383158955,406.9497781805035
650,Origin UK Operations Limited,Cattedown,lower,Plymouth UA,England,PL40SN,50.364965,-4.114266,105.41409753201833,12.786012024787851
651,Origin UK Operations Limited,Cliff Quay,lower,Ipswich,England,IP30BS,52.037936,1.160235,476.34621260873723,148.09113772561432
652,Origin UK Operations Limited,Immingham Dock,lower,North East Lincolnshire,England,DN402QQ,53.618839,-0.187445,384.62804476483285,287.37677754820197
653,Origin UK Operations Limited,Sharpness Dock,lower,Stroud,England,GL139UX,51.719151,-2.474105,226.61010724392102,123.08037591104221
654,Origin UK Operations Limited,Stockton-on-Tees (Portrack Site),lower,Stockton-on-Tees,England,TS182RF,54.578922,-1.27213,315.0135476277845,374.74152088376013
655,Origin UK Operations Limited,Great Yarmouth,lower,Great Yarmouth,England,NR303QA,52.579844,1.736736,514.3212227162919,196.7486485962363
656,Oxkem Limited,Reading,lower,Reading,England,RG301DZ,51.461534608803696,-0.999021,327.7835511382251,97.55816450273278
657,P D Port Services Limited,Howdendyke,lower,East Riding,England,DN147UW,53.730141,-0.847452,341.24628695397666,297.73989707813007
658,P D Port Services Limited,Riverside Jetty (Howdendyke),lower,East Riding,England,DN147UW,53.730141,-0.847452,341.24628695397666,297.73989707813007
659,Pains Fireworks Limited,Salisbury,lower,Wiltshire UA,England,SP52SD,51.01284646203369,-1.64321,282.05140277163173,59.70031170209313
660,Peterson (United Kingdom) Limited,Aberdeen - Waterloo Quay,lower,Aberdeen City UA,Scotland,AB115BS,57.145726,-2.083867632,271.31217131323194,612.3334569659273
661,Peterson (United Kingdom) Limited,Lerwick,lower,Shetland,Scotland,ZE10PY,60.176726,-1.157818,332.9679166888782,898.5223092923902
662,Petroineos Fuels Assets Limited,Dalston,lower,Carlisle,England,CA57LX,54.845541,-2.992683,205.47434744766826,403.03362585015566
663,Plastica Limited,Perimeter House,lower,Hastings,England,TN389NY,50.880716,0.535122,434.533098811561,46.817895233431045
664,Portico Shipping Limited,Portsmouth,lower,Portsmouth UA,England,PO27SP,50.80936,-1.090189,320.3942704284914,41.21864157370601
665,PPG Architectural Coatings UK Limited,Batley,lower,Wakefield,England,WF179XA,53.7283125020962,-1.66287783483846,287.6147475545319,298.75102068953674
666,PPG Industries (UK) Limited,Shildon,lower,Durham County UA,England,DL42QP,54.619566,-1.63625894656896,291.6595105749564,379.0194124417203
667,Prax Terminals Limited,Jarrow Terminal,lower,South Tyneside,England,NE323HH,54.982873,-1.478386,302.67164438810283,411.7435651579649
668,Precision Explosives Limited,Tonbridge,lower,,England,TN127DG,51.170884,0.424726,426.6023788428632,71.8362235018426
669,Premier LPG Limited,Preston,lower,Preston,England,PR25NQ,53.783032,-2.64431218471557,223.3242971510702,306.07914652528916
670,Prime Formulations Limited,Doncaster,lower,Doncaster,England,DN124LQ,53.4896036672702,-1.25868210794819,313.72653972703796,276.7114187915481
671,Proseat LLP,Stakehill Industrial Estate,lower,Rochdale,England,M242SJ,53.568100354081,-2.16921,253.78155558494697,285.52709220995985
672,Protim Solignum Limited,Yarm Road Industrial Estate,lower,Darlington,England,DL14QA,54.523031942476095,-1.508161,299.6734248556726,370.0496207406327
673,Puma Energy (UK) Limited,Theale Fuel Terminal,lower,West Berkshire UA,England,RG75BJ,51.4286448098155,-1.09079183167598,321.3723847366008,94.81466879514528
674,Puma Energy (UK) Limited,Westerleigh Oil Terminal,lower,South Gloucs UA,England,BS378QZ,51.5091325218155,-2.448406,227.5968125204377,104.71590768959368
675,PX Limited,Northampton Fuel Terminal,lower,Northampton,England,NN55JN,52.2346361453798,-0.913210409105319,334.8049869070569,165.05062096551774
676,QinetiQ Limited,MOD Boscombe Down,lower,Wiltshire UA,England,SP40JF,51.164779634983,-1.75678156022936,274.51268391957313,73.07555548594382
677,QinetiQ Limited,MOD Eskmeals,lower,Copeland,England,LA195YR,54.321504,-3.409797,175.98629023516486,357.12117133333686
678,Qualitech Environmental Services Limited,Hartlepool,lower,Hartlepool,England,TS252BQ,54.645876,-1.20103,319.7218434128388,380.71081601324477
679,Quat-Chem Limited,Rochdale,lower,Rochdale,England,OL165SJ,53.609189121861505,-2.14680948260493,255.39746198048175,289.1457224421756
680,Radius Aerospace UK Limited,Sheffield,lower,Sheffield,England,S203GB,53.328319,-1.33646169491995,308.2463114776071,262.43243456756454
681,Reabrook Limited,Moira,lower,NW Leicestershire,England,DE126DA,52.7396639701274,-1.53735015991465,293.50666213239816,210.4876140521137
682,Recticel UK Limted,Alfreton,lower,Bolsover,England,DE554RD,53.0889812318178,-1.35375237216697,306.59486472494,241.15296611268377
683,Recticel UK Limted,Stoke on Trent,lower,Stoke-on-Trent,England,ST37TU,52.970694450356305,-2.09096825549806,257.0021788981071,232.13119787762662
684,Reichhold (UK) Limited,London Willow Lane Mitcham,lower,Merton,England,CR44NA,51.393381,-0.164696,385.5641270316978,91.04632495542774
685,Revlon International Corporation,Stone,lower,Staffordshire Moorlands,England,ST150SH,52.88816541910369,-2.14388204491619,253.18735574186707,224.94512314500935
686,RMS Grimsby & Immingham Limited,Grimsby,lower,North East Lincolnshire,England,DN313TD,53.5769388349479,-0.09294,390.85508957878795,283.6115638159781
687,Robert Stuart Limited,Harlow,lower,Harlow,England,CM202DH,51.78769,0.125004,405.58919546467,125.39587924992566
688,Robinson Brothers Limited,Ryders Green Works,lower,Sandwell,England,B700AH,52.524353,-2.021121,260.2831773896752,192.48306632212825
689,Rockwool Limited,Glamorgan,lower,Bridgend UA,Wales,CF356NY,51.5453933719288,-3.49987936447903,155.11965849353734,111.64228894306098
690,Rolls Royce Plc,Barnoldswick - Bankfield,lower,Pendle,England,BB185RU,53.920001,-2.182569,254.10170276867225,317.0910705770457
691,Rolls Royce Plc,Barnoldswick - Ghyll Brow,lower,Pendle,England,BB185RU,53.920001,-2.182569,254.10170276867225,317.0910705770457
692,Rolls-Royce Plc,Hucknall,lower,Ashfield,England,NG196EU,53.1523984705287,-1.21853420005301,315.7425160026905,246.58965253895076
693,Rose Gas Limited,Sunset Farm,lower,Wealden,England,TN210TX,50.981491543226305,0.225522133133595,412.77876511480616,55.37365048596121
694,Russell Laboratories Limited,Kingsnorth Ind Est,lower,Ashford,England,TN236LW,51.132684,0.866749,457.46787407284415,68.87580353817839
695,RWE Generation UK Plc,Aberthaw Power Station,lower,Vale of Glamorgan UA,Wales,CF624ZW,51.3874693259582,-3.40660954942674,160.74145310440036,97.54160352966892
696,S & J D Robertson North Air Limited,Stansted,lower,Uttlesford,England,CM241QN,51.887341,0.247572,413.9820556654226,134.13552539998318
697,S & J D Robertson North Air Limited (with Pentland Aviation Fuelling Services Limited),Glasgow Airport Aviation Fuel Storage Depot,lower,Renfrewshire UA,Scotland,PA32TJ,55.862118,-4.434808,120.5305480117384,501.7283483691408
698,Safapac Limited,Peterborough,lower,Peterborough UA,England,PE26TB,52.538933,-0.308197120374395,376.1474484901597,191.41442204671375
699,Safran Landing Systems Services UK Limited,Meteor Business Park,lower,Tewkesbury,England,GL29QL,51.89749207240649,-2.17093329747597,248.0679541920046,137.80865735876296
700,Safran Landing Systems UK Limited,Gloucester,lower,Tewkesbury,England,GL29QH,51.8974968423947,-2.17381083864944,247.87066917985743,137.816558690311
701,Salvatori Group of Companies Limited (The),Aylesham,lower,Canterbury,England,CT33EQ,51.2214551045594,1.192662,480.0453112078003,76.97310189821656
702,Sandvik Limited t/a Sandvik Powder and Blanks Technology,North Site - Coventry,lower,Coventry,England,CV49XG,52.4071884055872,-1.60242733321026,288.3062211248808,181.26039235889039
703,Sanglier Limited,Mansfield,lower,Mansfield,England,NG185EZ,53.131767814762,-1.22396029466266,315.3415661621435,244.7622757947588
704,Schlegel Limited,Henlow Camp,lower,Central Bedfordshire UA,England,SG166DS,52.0067123802125,-0.301990341111016,376.32050650290836,144.60538395524873
705,Scotland Gas Networks PLC,Campbeltown LNG Storage Installation,lower,Argyll & Bute UA,Scotland,PA286JL,55.421558523501695,-5.60086653157156,44.10042270763694,467.84486992873644
706,Scotland Gas Networks PLC,Oban LNG Storage Installation,lower,Argyll & Bute UA,Scotland,PA344PL,56.406548,-5.475319,60.64143045878325,557.3743233833884
707,Scotland Gas Networks PLC,Thurso LNG Storage Installation,lower,Highland UA,Scotland,KW147XW,58.59647507235751,-3.549828,191.44751252766662,753.0244591592232
708,Scott Bader UK Limited,Wollaston Hall,lower,Wellingborough,England,NN297RL,52.281001,-0.645988,353.04683655033654,168.87962252752277
709,Sea Bunkering Limited,Blyth,lower,Northumberland UA,England,NE245SY,55.134627,-1.517174,300.5638199808993,425.6359154227175
710,Sharpness Dock Limited,Mersey Wharf,lower,Wirral,England,CH624SF,53.354694,-2.977708,199.45626892446026,268.88424001541716
711,Sharpness Dock Limited,Sharpness Dock,lower,Stroud,England,GL139UX,51.719151,-2.474105,226.61010724392102,123.08037591104221
712,Shell UK Oil Products Limited,Luton Airport                  ,lower,Luton UA,England,LU29LU,51.879813,-0.377153,371.10271488009346,133.52544719070784
713,Sherwin-Williams Diversified Brands Limited,Sheffield,lower,Sheffield,England,S352YP,53.471552,-1.46918061379855,299.7630799053754,275.43028867622934
714,Shin-etsu Handotai Europe Limited,Toll Roundabout,lower,West Lothian UA,Scotland,EH547DA,55.888382,-3.563358,174.92729580140644,500.34884215963075
715,Sigma-Aldrich Company Limited,Gillingham,lower,North Dorset,England,SP84XT,51.03012,-2.276907,237.80480327431275,62.70854715626729
716,Sika Limited,Preston,lower,Preston,England,PR11EA,53.758805,-2.683907,220.62401567859325,304.0293640283244
717,Simec Oil and Chemical Limited,Newport,lower,Newport UA,Wales,NP194XE,51.558028,-2.962796,192.2574657793662,110.64760691104584
718,Sky Pyro Limited,Bridgnorth,lower,Shropshire UA,England,WV166SS,52.499112,-2.573667,222.831595936295,191.75677374686302
719,Solent Gateway Limited,Sea Mounting Centre,lower,Southampton UA,England,SO404ZG,50.892495796041,-1.44025762819783,295.9831422804996,48.92849087350487
720,Speymalt Whisky Distributors Limited,Benromach Distillery,lower,Moray UA,Scotland,IV363EB,57.6136082286725,-3.62002654744456,181.52963727560658,660.6760194922058
721,SSE Generation Limited,Lerwick Power Station,lower,Shetland,Scotland,ZE10PS,60.1669639807756,-1.16471667933069,332.5673555316822,897.58855258002
722,Stainless Plating Limited,Stainless Plating,lower,Sheffield,England,S92UB,53.401085675843,-1.4294407927586,302.23544912867703,269.0722883883168
723,Stan Robinson Distribution Limited,Ladfordfields Ind Estate,lower,Stafford,England,ST189QE,52.830539,-2.208419,248.66373179447768,220.00534474117467
724,Stanlow Terminals Limited,Stanlow,lower,Cheshire West and Chester UA,England,CH654BD,53.279271,-2.880269,205.5766674550585,261.8365936152454
725,Sterigenics UK Limited,Sterigenics UK Ltd,lower,Amber Valley,England,DE554NJ,53.088024,-1.364442,305.87917734069634,241.0848169030387
726,Swinton Electro Plating Limited,Swinton,lower,Salford,England,M274FL,53.5148738870851,-2.32805115758698,243.10719835111652,281.1823845551853
727,Synergy Health Sterilisation UK Limited,Thorne,lower,Doncaster,England,DN85TZ,53.614667,-0.977444,332.5198114942343,287.5330205638652
728,Synthomer (UK) Limited,Harlow,lower,Harlow,England,CM202BH,51.785087,0.118763,405.16039531372195,125.16755036133918
729,Syntor Fine Chemicals Limited,Knowsley ,lower,Knowsley,England,L337UG,53.487355,-2.846654,208.7310905537663,280.273500057182
730,Syntor Fine Chemicals Limited,Runcorn,lower,Halton UA,England,WA71SR,53.345238,-2.673904,219.55516137374772,267.0475596752967
731,Tan International Limited,Perth,lower,Perth & Kinross UA,Scotland,PH28DG,56.37651090676609,-3.42034218167649,186.51783240886598,544.793336699377
732,Tata Steel UK Limited,Shotton Works,lower,Flintshire UA,Wales,CH52NH,53.2279955616547,-3.05323933611342,193.84878637180182,257.86965632406464
733,Tata Steel UK Limited,Trostre Steelworks,lower,Carmarthenshire UA,Wales,SA149SD,51.673938620165,-4.13113589767215,112.3713745861827,125.72124523681487
734,Tennants Distribution Limited,Batley,lower,Wakefield,England,WF179NF,53.739711,-1.650476,288.45968961046776,299.74893334152557
735,Tennants Distribution Limited,Manchester,lower,Manchester,England,M80GR,53.50777417608769,-2.22697416923977,249.7602704388423,280.28258433794144
736,Tennants Distribution Limited,West Bromwich,lower,Sandwell,England,B700AX,52.52258907,-2.022845056,260.1611168929369,192.33162140267905
737,Tesco Distribution Limited,Tesco Daventry Grocery Depot,lower,Daventry,England,CV238YH,52.352288,-1.176838,317.06777881936966,175.72596261409217
738,Tetrosyl Limited,Bury - Heap Bridge,lower,Oldham,England,BL97NY,53.592437,-2.265984,247.48197066109537,287.95024601534305
739,Tetrosyl Limited,Rochdale - Royal Barn Road,lower,Rochdale,England,OL113DT,53.595267,-2.180061,253.15799544493078,287.98336694531963
740,Thames Water Utilities Limited,Walthamstow (Coppermill Lane),lower,Waltham Forest,England,E177HQ,51.578898027982895,-0.047296942960156,393.7228506162575,107.17220981718629
741,Thames Water Utilities Limited,Ashford Common Water Treatment Works,lower,Spelthorne,England,TW151RY,51.42191787775911,-0.442080062112764,366.3380117199416,93.62830865176556
742,Thames Water Utilities Limited,Beckton Sewage Treatment Works,lower,Newham LB,England,IG110AD,51.524356,0.077992,402.38685162537166,102.42477403898056
743,Thames Water Utilities Limited,Crossness Sewage Treatment Works,lower,Bexley,England,SE29AQ,51.505805,0.133982,406.26420318521554,100.81725979599696
744,Thames Water Utilities Limited,Deephams Sewage Tratment Works,lower,Enfield,England,N90BA,51.6265238414102,-0.041452736467778,394.1296912635464,111.32229518871009
745,Thames Water Utilities Limited,Hampton Advanced Water Treatment Works ,lower,Richmond-upon-Thames,England,TW122ES,51.4110794936074,-0.371759235180844,371.20775151299205,92.65161506924778
746,Thames Water Utilities Limited,Maple Lodge Sewage Treatment Works,lower,Three Rivers,England,WD39SQ,51.6191307205228,-0.501205468004301,362.3886218067151,110.82814666799777
747,Thames Water Utilities Limited,Long Reach Sewage Treatment Works,lower,Dartford,England,DA15PP,51.4664026818257,0.232208114600772,413.0764531198241,97.4108038342788
748,Thames Water Utilities Limited,Gateway Desalination Plant,lower,Newham LB,England,IG110AD,51.524356,0.077992,402.38685162537166,102.42477403898056
749,Thames Water Utilities Limited,Riverside Sewage Treatment Works,lower,Havering,England,RM138QS,51.5182956234246,0.185721691186057,409.841654725997,101.91438637530791
750,Thomas Swan & Co Limited,Consett,lower,Durham County UA,England,DH87ND,54.853262,-1.815135,280.8203700657333,400.5730983143162
751,Titanium Fireworks Limited,Whitegates,lower,Huntingdon,England,PE195ES,52.2867456282163,-0.363394560579768,372.27350709076296,169.21558028323398
752,Tomatin Distillery Company Limited (The),Tomatin Distillery,lower,Highland UA,Scotland,IV137YT,57.3409989604068,-4.01027508121902,156.55092695222223,636.7260685324118
753,Tor Coatings Limited,Portobello Industrial Estate,lower,Gateshead,England,DH32RE,54.892999390659,-1.561165,297.1688487783066,403.70671259300343
754,Tradebe Solvent Recycling Limited,Knottingley,lower,Wakefield,England,WF118DZ,53.709082,-1.225424,316.3463853794053,296.3023887420695
755,Tradebe Solvent Recycling Limited,Ocean Terminal,lower,Sunderland,England,SR12ES,54.902346,-1.35812809132534,310.16874472410757,404.2260100171625
756,TS Resins Limited,Mold,lower,Flintshire UA,Wales,CH71BT,53.1754706925212,-3.14951850907939,187.19241236144998,253.5466787639175
757,TW Logistics Limited,Wrabness Storage Depot,lower,Tendring,England,CO112TE,51.939315,1.14721815746237,475.6290228456894,139.43483589941115
758,UM Storage Limited,Hull,lower,Hull City UA,England,HU95PR,53.743978,-0.274279856654601,378.95450578134285,298.61139861246784
759,Ungerer Limited,Bromborough,lower,Wirral,England,CH623RN,53.336649,-2.969486,199.91781929782005,267.2483659594268
760,Uniper UK Limited,Ratcliffe-on-Soar Power Station,lower,Rushcliffe,England,NG110EE,52.861817,-1.25907,312.4730596469913,220.84707700404806
761,United Molasses Group Limited,Bootle,lower,Sefton,England,L201BE,53.451068,-3.015022,197.43573621943818,277.60533412107907
762,United Utilities Water Limited,Davyhulme Water Treatment Works,lower,Trafford,England,M417JB,53.4613473468967,-2.36527677388301,240.45055159460574,276.5035144899366
763,United Utilities Water Limited,Watchgate Water Treatment Works,lower,South Lakeland,England,LA89LQ,54.3765988472509,-2.72482084799646,220.5817474254098,359.71663864936727
764,Univar Solutions UK Limited,Nuneaton,lower,Nuneaton,England,CV107HR,52.512420762621296,-1.488078,296.30111768497426,190.3263583880189
765,Univar Solutions UK Limited,South Kirkby,lower,Wakefield,England,WF93NR,53.591329826471295,-1.30712223827914,310.7301945862472,285.87832241325077
766,Univar Solutions UK Limited,Wellingborough,lower,Wellingborough,England,NN84EY,52.3186824328334,-0.678685930753098,350.8618831930667,172.22030994693841
767,UPL Europe Limited,Sandbach Site ,lower,Cheshire East UA,England,CW113QQ,53.138391278777696,-2.40386159773712,236.69074271165476,247.8425912994262
768,Urban and Civic Alconbury Limited,Alconbury - The Old Bomb Dump,lower,Huntingdon,England,PE284WX,52.379569,-0.223194,381.8415163396311,177.3369572758652
769,Valspar (UK) Corporation Limited (The),Deeside,lower,Flintshire UA,Wales,CH52NN,53.2320999827174,-3.00686738802451,196.95039090094792,258.07157827392166
770,Venator Pigments UK Limited,Birtley,lower,Gateshead,England,DH31QX,54.900706,-1.586905,295.54284324101786,404.4527329951875
771,Venator Pigments UK Limited,Kidsgrove,lower,Newcastle-under-Lyme,England,ST73AA,53.089377876863296,-2.24835560624501,246.88406462090327,243.06583448130095
772,Veolia ES (UK) Limited,Liverpool - Garston,lower,Liverpool,England,L198EG,53.34629003301129,-2.90222836788083,204.4211282058373,267.8785368385179
773,Veolia ES (UK) Limited,Stewartby,lower,Bedford Unitary Authority,England,MK439LY,52.073282,-0.525412,361.0816300075303,150.55175435301317
774,Veolia ES (UK) Limited,Walsall Empire Works,lower,Walsall,England,WS98BL,52.6125798919896,-1.93524116583434,266.35287652566944,200.0682953387618
775,Victrex Manufacturing Limited,Thornton Cleveleys,lower,Wyre,England,FY54QD,53.883097,-3.000861,200.39812863284243,316.20296153075515
776,Vita Cellular Foams (UK) Limited,Accrington,lower,Hyndburn,England,BB52BS,53.74735,-2.355351,242.15912587492164,302.0534995627427
777,VPI Immingham LLP,Immingham CHP LLP,lower,North Lincolnshire,England,DN403DZ,53.6472037003922,-0.238879972731347,381.24622544903224,289.92909856013193
778,VWR International Limited,Lutterworth,lower,Harborough,England,LE174XN,52.4604803112934,-1.249825,312.3196506560525,185.3610692228135
779,W H Bowker Limited,Bamber Bridge,lower,South Ribble,England,PR56BP,53.725188,-2.671418,221.30361993502356,300.9800723990129
780,W. H. Malcolm Limited,Hurlford,lower,East Ayrshire UA,Scotland,KA15JL,55.5910421082346,-4.45220569564815,117.51460583841958,476.97929479921095
781,W. H. Malcolm Limited,Grangemouth - Tillyflats,lower,Falkirk UA,Scotland,FK38XT,56.0055772107456,-3.7435947820775,164.4157225117625,511.8388623776773
782,W. H. Malcolm Limited,Grangemouth - West Mains,lower,Falkirk UA,Scotland,FK38YE,56.0121700594596,-3.75268248145756,163.89172669042858,512.4823164105624
783,W. H. Malcolm Limited,Glenrothes Depot,lower,Fife UA,Scotland,KY62SE,56.179637,-3.183706,200.0526395441061,525.77423927478
784,Wales and West Utilities Limited,Arle Avenue Holder Station,lower,Cheltenham,England,GL517JN,51.9097060322636,-2.10624700852014,252.54259971118827,138.7111194220961
785,Wales and West Utilities Limited,Weston Super Mare Holder Station,lower,North Somerset,England,BS233NG,51.341595187271906,-2.96804437350216,190.92057243584324,91.87033795110437
786,Wavin UK (Holdings) Limited,Sheffield,lower,Sheffield,England,S364HG,53.5382256168999,-1.72875718522787,282.7693409197332,281.86695118865464
787,Welsh Water / Dwr Cymru,Felindre Water Treatment Works,lower,Swansea UA,Wales,SA57NP,51.710223,-3.957173,124.55576496542704,128.03363629449314
788,West Wales Gas Limited,Llandysul,lower,Carmarthenshire UA,Wales,SA444AL,52.0371180869188,-4.31618284449066,102.03620914576612,158.3309072132929
789,Whyte and MacKay Limited,Dalmore Distillery,lower,Highland UA,Scotland,IV170UT,57.688681,-4.238943,145.27574747842638,670.2350154177043
790,Whyte and MacKay Limited,Tamnavulin Distillery,lower,Moray UA,Scotland,AB379JA,57.318954,-3.31121,198.2933002759651,631.9877712907801
791,William Grant & Sons Distillers Limited,The Customer Service Centre,lower,North Lanarkshire UA,Scotland,ML43AN,55.832955375943506,-4.04052690554806,144.87771469957013,497.23345505984344
792,Wincanton Plc,B&Q Distribution Centre,lower,Swindon UA,England,SN34QS,51.591485,-1.746313,276.3719707978785,110.10581146534923
793,Witton Chemical Company Limited,Bury St Edmunds,lower,Forest Heath,England,IP287AT,52.355921177745905,0.508984878896969,431.55723107122054,175.3785481272139
794,Workfield Limited (t/a Cheshire Bottled Gas),Stalybridge,lower,Tameside,England,SK151PT,53.4798102459643,-2.06745074189256,260.2118417527366,277.38961484317906
795,World Fuel Services Aviation Limited,Birmingham Airport Joint Airport Storage,lower,Solihull,England,B263QY,52.447709,-1.735881,279.3655464297428,185.09356513105195
796,XPO Supply Chain UK Limited,"Bromford Gate, Birmingham",lower,Birmingham,England,B248DW,52.507428,-1.834192,272.87465077157697,190.5650477268823
797,XPO Supply Chain UK Limited,Goole,lower,East Riding,England,DN146XL,53.7045525221391,-0.900385330788872,337.7286049834134,295.49966421921727
798,XPO Supply Chain UK Limited,Stowmarket,lower,Mid Suffolk,England,IP142QU,52.179198222688704,1.01018180278351,465.86581338271856,160.290913778304
799,YARA UK Limited,Avonmouth,lower,Bristol UA,England,BS119HW,51.508639,-2.695015,210.5450252627776,105.43879262753671
